{
"type": "FeatureCollection",
"features": [
{ "type": "Feature", "id": 0, "properties": { "FIRE_COMPA": "HARDY", "COMPANY__": "12", "ADDRESS": "1220 Bandy Mill Road", "CITY": "Hardy", "STATE": "VA", "ZIP": 24101, "LABEL_NUM": "5" }, "geometry": { "type": "Point", "coordinates": [ 11101315.894628, 3612158.639320 ] } }
,
{ "type": "Feature", "id": 1, "properties": { "FIRE_COMPA": "STEWARTSVILLE-CHAMBLISSBURG STATION 1", "COMPANY__": "13", "ADDRESS": "7797 Jordantown Road", "CITY": "Vinton", "STATE": "VA", "ZIP": 24179, "LABEL_NUM": "17" }, "geometry": { "type": "Point", "coordinates": [ 11106619.332500, 3625009.160000 ] } }
,
{ "type": "Feature", "id": 2, "properties": { "FIRE_COMPA": "MONTVALE", "COMPANY__": "9", "ADDRESS": "1001 Volunteer Street", "CITY": "Montvale", "STATE": "VA", "ZIP": 24122, "LABEL_NUM": "13" }, "geometry": { "type": "Point", "coordinates": [ 11125428.639035, 3666067.221576 ] } }
,
{ "type": "Feature", "id": 3, "properties": { "FIRE_COMPA": "BEDFORD", "COMPANY__": "1", "ADDRESS": "315 Bedford Avenue", "CITY": "Bedford", "STATE": "VA", "ZIP": 24523, "LABEL_NUM": "1" }, "geometry": { "type": "Point", "coordinates": [ 11185177.758514, 3647710.063564 ] } }
,
{ "type": "Feature", "id": 4, "properties": { "FIRE_COMPA": "MONETA STATION 1", "COMPANY__": "8", "ADDRESS": "12737 N Old Moneta Road", "CITY": "Moneta", "STATE": "VA", "ZIP": 24121, "LABEL_NUM": "10" }, "geometry": { "type": "Point", "coordinates": [ 11158616.321817, 3593374.867831 ] } }
,
{ "type": "Feature", "id": 5, "properties": { "FIRE_COMPA": "SAUNDERS STATION 2", "COMPANY__": "10", "ADDRESS": "16538 Smith Mountain Lake Pkwy", "CITY": "Huddleston", "STATE": "VA", "ZIP": 24104, "LABEL_NUM": "15" }, "geometry": { "type": "Point", "coordinates": [ 11166899.523619, 3545028.516908 ] } }
,
{ "type": "Feature", "id": 6, "properties": { "FIRE_COMPA": "HUDDLESTON STATION 1", "COMPANY__": "7", "ADDRESS": "5377 Smith Mountain Lake Pkwy", "CITY": "Huddleston", "STATE": "VA", "ZIP": 24104, "LABEL_NUM": "6" }, "geometry": { "type": "Point", "coordinates": [ 11197291.556573, 3582687.047578 ] } }
,
{ "type": "Feature", "id": 7, "properties": { "FIRE_COMPA": "BIG ISLAND", "COMPANY__": "2", "ADDRESS": "10770 Lee Jackson Highway", "CITY": "Big Island", "STATE": "VA", "ZIP": 24526, "LABEL_NUM": "2" }, "geometry": { "type": "Point", "coordinates": [ 11233381.702500, 3719306.867500 ] } }
,
{ "type": "Feature", "id": 8, "properties": { "FIRE_COMPA": "FOREST", "COMPANY__": "5", "ADDRESS": "1257 Burnbridge Road", "CITY": "Forest", "STATE": "VA", "ZIP": 24551, "LABEL_NUM": "4" }, "geometry": { "type": "Point", "coordinates": [ 11253983.933291, 3656392.763810 ] } }
,
{ "type": "Feature", "id": 9, "properties": { "FIRE_COMPA": "BOONSBORO", "COMPANY__": "3", "ADDRESS": "1065 Lee Jackson Highway", "CITY": "Lynchburg", "STATE": "VA", "ZIP": 24503, "LABEL_NUM": "3" }, "geometry": { "type": "Point", "coordinates": [ 11261855.371096, 3688502.742494 ] } }
,
{ "type": "Feature", "id": 10, "properties": { "FIRE_COMPA": "MONETA STATION 3", "COMPANY__": "8", "ADDRESS": "3346 Horseshoe Bend Road", "CITY": "Moneta", "STATE": "VA", "ZIP": 24121, "LABEL_NUM": "12" }, "geometry": { "type": "Point", "coordinates": [ 11137644.577040, 3596836.651910 ] } }
,
{ "type": "Feature", "id": 11, "properties": { "FIRE_COMPA": "MONETA STATION 2", "COMPANY__": "8", "ADDRESS": "1128 Shingle Block Road", "CITY": "Bedford", "STATE": "VA", "ZIP": 24523, "LABEL_NUM": "11" }, "geometry": { "type": "Point", "coordinates": [ 11174954.739000, 3607564.192000 ] } }
,
{ "type": "Feature", "id": 12, "properties": { "FIRE_COMPA": "HUDDLESTON STATION 2", "COMPANY__": "7", "ADDRESS": "3477 Smith Mountain Lake Pkwy", "CITY": "Huddleston", "STATE": "VA", "ZIP": 24104, "LABEL_NUM": "7" }, "geometry": { "type": "Point", "coordinates": [ 11204945.379049, 3586459.783469 ] } }
,
{ "type": "Feature", "id": 13, "properties": { "FIRE_COMPA": "HUDDLESTON STATION 3", "COMPANY__": "7", "ADDRESS": "6185 Dundee Road", "CITY": "Huddleston", "STATE": "VA", "ZIP": 24104, "LABEL_NUM": "8" }, "geometry": { "type": "Point", "coordinates": [ 11181907.177350, 3556392.608412 ] } }
,
{ "type": "Feature", "id": 14, "properties": { "FIRE_COMPA": "SHADY GROVE", "COMPANY__": "19", "ADDRESS": "101 Shady Grove Drive", "CITY": "Thaxton", "STATE": "VA", "ZIP": 24174, "LABEL_NUM": "16" }, "geometry": { "type": "Point", "coordinates": [ 11128406.898000, 3642659.013000 ] } }
,
{ "type": "Feature", "id": 15, "properties": { "FIRE_COMPA": "SAUNDERS STATION 1", "COMPANY__": "10", "ADDRESS": "12253 Smith Mountain Lake Pkwy", "CITY": "Huddleston", "STATE": "VA", "ZIP": 24104, "LABEL_NUM": "14" }, "geometry": { "type": "Point", "coordinates": [ 11168645.000000, 3564826.000000 ] } }
,
{ "type": "Feature", "id": 16, "properties": { "FIRE_COMPA": "HUDDLESTON STATION 4", "COMPANY__": "7", "ADDRESS": "14276 Wyatts Way", "CITY": "Huddleston", "STATE": "VA", "ZIP": 24104, "LABEL_NUM": "9" }, "geometry": { "type": "Point", "coordinates": [ 11217447.638829, 3602593.818847 ] } }
,
{ "type": "Feature", "id": 17, "properties": { "FIRE_COMPA": "STEWARTSVILLE-CHAMBLISSBURG STATION 2", "COMPANY__": "13", "ADDRESS": "10643 Stewartsville Road", "CITY": "Goodview", "STATE": "VA", "ZIP": 24095, "LABEL_NUM": "18" }, "geometry": { "type": "Point", "coordinates": [ 11127186.024398, 3619656.794658 ] } }

]
}
