{"type":"Topology","objects":{"collection":{"type":"GeometryCollection","geometries":[{"type":"Point","properties":{"FACILITY":"AMERICAN ELECTRIC POWER CLINCH RIVER PLANT","ADDRESS":"JUNCTION OF ST RTS 664 & 665","CITY":"CLEVELAND","STATE":"VA","ZIP":24225,"LAT":"36.93853400","LONG":"-82.17196100"},"coordinates":[0,1521]},{"type":"Point","properties":{"FACILITY":"AMERICAN ELECTRIC POWER GLEN LYN PLANT","ADDRESS":"RT 460","CITY":"GLEN LYN","STATE":"VA","ZIP":24093,"LAT":"37.37173200","LONG":"-80.86490700"},"coordinates":[2228,3474]},{"type":"Point","properties":{"FACILITY":"MIRANT POTOMAC RIVER GENERATING STATION","ADDRESS":"1400 N ROYAL ST","CITY":"ALEXANDRIA","STATE":"VA","ZIP":22314,"LAT":"38.81936100","LONG":"-77.04225500"},"coordinates":[8744,9999]},{"type":"Point","properties":{"FACILITY":"POSSUM POINT POWER STATION","ADDRESS":"19000 POSSUM POINT RD","CITY":"DUMFRIES","STATE":"VA","ZIP":22026,"LAT":"38.54048000","LONG":"-77.28205200"},"coordinates":[8335,8742]},{"type":"Point","properties":{"FACILITY":"BREMO POWER STATION","ADDRESS":"1038 BREMO RD","CITY":"BREMO BLUFF","STATE":"VA","ZIP":23022,"LAT":"37.73277000","LONG":"-78.31635000"},"coordinates":[6572,5101]},{"type":"Point","properties":{"FACILITY":"CLOVER POWER STATION","ADDRESS":"RTE. 92","CITY":"CLOVER","STATE":"VA","ZIP":24534,"LAT":"36.82676700","LONG":"-78.73336100"},"coordinates":[5861,1018]},{"type":"Point","properties":{"FACILITY":"MECKLENBURG COGENERATION FACILITY","ADDRESS":"204 COGEN DR.","CITY":"CLARKSVILLE","STATE":"VA","ZIP":23927,"LAT":"36.60102700","LONG":"-78.52967500"},"coordinates":[6208,0]},{"type":"Point","properties":{"FACILITY":"DOSWELL COMBINED CYCLE FACILITY","ADDRESS":"10098 OLD RIDGE RD.","CITY":"ASHLAND","STATE":"VA","ZIP":23005,"LAT":"37.81396700","LONG":"-77.44305900"},"coordinates":[8060,5467]},{"type":"Point","properties":{"FACILITY":"CHESTERFIELD POWER STATION","ADDRESS":"500 COXENDALE RD","CITY":"CHESTER","STATE":"VA","ZIP":23836,"LAT":"37.38122200","LONG":"-77.37653500"},"coordinates":[8174,3517]},{"type":"Point","properties":{"FACILITY":"DOMINION RESOURCES INC. HOPEWELL POWER STATION","ADDRESS":"107 TERMINAL ST.","CITY":"HOPEWELL","STATE":"VA","ZIP":23860,"LAT":"37.29761100","LONG":"-77.28206400"},"coordinates":[8335,3140]},{"type":"Point","properties":{"FACILITY":"YORKTOWN POWER STATION","ADDRESS":"1600 WATERVIEW RD.","CITY":"YORKTOWN","STATE":"VA","ZIP":23692,"LAT":"37.21658600","LONG":"-76.45950200"},"coordinates":[9737,2775]},{"type":"Point","properties":{"FACILITY":"COGENTRIX OF RICHMOND INC","ADDRESS":"5001 COMMERCE RD","CITY":"RICHMOND","STATE":"VA","ZIP":23234,"LAT":"37.46111900","LONG":"-77.42748900"},"coordinates":[8087,3877]},{"type":"Point","properties":{"FACILITY":"DOMINION RESOURCES INC. SOUTHAMPTON POWER STATION","ADDRESS":"30134 GENERAL THOMAS HWY.","CITY":"FRANKLIN","STATE":"VA","ZIP":23851,"LAT":"36.65577200","LONG":"-76.99218900"},"coordinates":[8829,247]},{"type":"Point","properties":{"FACILITY":"CHESAPEAKE ENERGY CENTER","ADDRESS":"2701 VEPCO ST","CITY":"CHESAPEAKE","STATE":"VA","ZIP":23323,"LAT":"36.77111600","LONG":"-76.30575400"},"coordinates":[9999,767]},{"type":"Point","properties":{"FACILITY":"COGENTRIX VIRGINIA LEASING CORP","ADDRESS":"1 WILD DUCK LN","CITY":"PORTSMOUTH","STATE":"VA","ZIP":23703,"LAT":"36.86946500","LONG":"-76.36080100"},"coordinates":[9905,1210]}]}},"arcs":[],"transform":{"scale":[0.0005866988556964171,0.00022185277252722183],"translate":[-82.17181879006256,36.601168257982785]},"bbox":[-82.17181879006256,36.601168257982785,-76.30541693195408,38.819474130482476]}