{
"type": "FeatureCollection",
"features": [
{ "type": "Feature", "id": 0, "properties": { "RESCUE_SQU": "GOODE", "SQUAD__": 6, "ADDRESS": "9261 Forest Road", "CITY": "Bedford", "STATE": "VA", "ZIP": 24556, "LABEL_NUM": "6" }, "geometry": { "type": "Point", "coordinates": [ 11224246.457788, 3658585.581935 ] } }
,
{ "type": "Feature", "id": 1, "properties": { "RESCUE_SQU": "BEDFORD", "SQUAD__": 1, "ADDRESS": "311 Bedford Avenue", "CITY": "Bedford", "STATE": "VA", "ZIP": 24523, "LABEL_NUM": "1" }, "geometry": { "type": "Point", "coordinates": [ 11185191.752517, 3647726.962345 ] } }
,
{ "type": "Feature", "id": 2, "properties": { "RESCUE_SQU": "BIG ISLAND", "SQUAD__": 2, "ADDRESS": "10961 Lee Jackson Highway", "CITY": "Big Island", "STATE": "VA", "ZIP": 24526, "LABEL_NUM": "2" }, "geometry": { "type": "Point", "coordinates": [ 11232981.725405, 3720183.715623 ] } }
,
{ "type": "Feature", "id": 3, "properties": { "RESCUE_SQU": "BOONSBORO", "SQUAD__": 3, "ADDRESS": "1065 Lee-Jackson Highway", "CITY": "Lynchburg", "STATE": "VA", "ZIP": 24503, "LABEL_NUM": "3" }, "geometry": { "type": "Point", "coordinates": [ 11261838.303543, 3688511.660403 ] } }
,
{ "type": "Feature", "id": 4, "properties": { "RESCUE_SQU": "CHAMBLISSBURG", "SQUAD__": 4, "ADDRESS": "9960 Stewartsville Road", "CITY": "Goodview", "STATE": "VA", "ZIP": 24095, "LABEL_NUM": "5" }, "geometry": { "type": "Point", "coordinates": [ 11130441.510601, 3618080.114996 ] } }
,
{ "type": "Feature", "id": 5, "properties": { "RESCUE_SQU": "HARDY", "SQUAD__": 12, "ADDRESS": "12923 Hardy Road", "CITY": "Hardy", "STATE": "VA", "ZIP": 24101, "LABEL_NUM": "7" }, "geometry": { "type": "Point", "coordinates": [ 11100880.543601, 3610573.652884 ] } }
,
{ "type": "Feature", "id": 6, "properties": { "RESCUE_SQU": "HUDDLESTON STATION 1", "SQUAD__": 7, "ADDRESS": "5439 Smith Mountain Lake Pkwy", "CITY": "Huddleston", "STATE": "VA", "ZIP": 24104, "LABEL_NUM": "8" }, "geometry": { "type": "Point", "coordinates": [ 11197396.348272, 3582675.551600 ] } }
,
{ "type": "Feature", "id": 7, "properties": { "RESCUE_SQU": "HUDDLESTON STATION 2", "SQUAD__": 7, "ADDRESS": "3447 Smith Mountain Lake Pkwy", "CITY": "Huddleston", "STATE": "VA", "ZIP": 24104, "LABEL_NUM": "9" }, "geometry": { "type": "Point", "coordinates": [ 11204953.383067, 3586457.721803 ] } }
,
{ "type": "Feature", "id": 8, "properties": { "RESCUE_SQU": "MONETA STATION 1", "SQUAD__": 8, "ADDRESS": "12646 N Old Moneta Road", "CITY": "Moneta", "STATE": "VA", "ZIP": 24121, "LABEL_NUM": "11" }, "geometry": { "type": "Point", "coordinates": [ 11159114.936092, 3593658.922601 ] } }
,
{ "type": "Feature", "id": 9, "properties": { "RESCUE_SQU": "MONETA STATION 2", "SQUAD__": 8, "ADDRESS": "8383 Moneta Road", "CITY": "Bedford", "STATE": "VA", "ZIP": 24523, "LABEL_NUM": "12" }, "geometry": { "type": "Point", "coordinates": [ 11174793.673019, 3607169.539022 ] } }
,
{ "type": "Feature", "id": 10, "properties": { "RESCUE_SQU": "MONTVALE", "SQUAD__": 9, "ADDRESS": "1485 Montvale Street", "CITY": "Montvale", "STATE": "VA", "ZIP": 24122, "LABEL_NUM": "13" }, "geometry": { "type": "Point", "coordinates": [ 11126621.750942, 3666849.963743 ] } }
,
{ "type": "Feature", "id": 11, "properties": { "RESCUE_SQU": "SHADY GROVE", "SQUAD__": 19, "ADDRESS": "101 Shady Grove Drive", "CITY": "Thaxton", "STATE": "VA", "ZIP": 24174, "LABEL_NUM": "14" }, "geometry": { "type": "Point", "coordinates": [ 11128398.810951, 3642466.537951 ] } }
,
{ "type": "Feature", "id": 12, "properties": { "RESCUE_SQU": "STEWARTSVILLE", "SQUAD__": 13, "ADDRESS": "1086 Goodview Road", "CITY": "Goodview", "STATE": "VA", "ZIP": 24095, "LABEL_NUM": "15" }, "geometry": { "type": "Point", "coordinates": [ 11105433.181437, 3624056.368669 ] } }
,
{ "type": "Feature", "id": 13, "properties": { "RESCUE_SQU": "CAMPBELL COUNTY", "SQUAD__": 5, "ADDRESS": "130 Vista Centre Drive", "CITY": "Forest", "STATE": "VA", "ZIP": 24551, "LABEL_NUM": "4" }, "geometry": { "type": "Point", "coordinates": [ 11264020.407816, 3660744.588601 ] } }
,
{ "type": "Feature", "id": 14, "properties": { "RESCUE_SQU": "HUDDLESTON STATION 3", "SQUAD__": 7, "ADDRESS": "1064 Off Shore Drive", "CITY": "Huddleston", "STATE": "VA", "ZIP": 24104, "LABEL_NUM": "10" }, "geometry": { "type": "Point", "coordinates": [ 11168862.294268, 3565115.197256 ] } }

]
}
