name,styleUrl,styleHash,Contact Names,Phone,lon,lat
17th Street Farmers' Market,#0,5541b804,George Bolos,(804)646-0477,-77.427682761137,37.534342556589
"500 - Year Forest Foundation, The",#0,5541b804,"Ted Harris, President",434-384-2324,-78.961955606676,36.019044369439
Abingdon Elementary School,#0,5541b804,Megan de Nobriga,276-739-3400,-82.017550741253,36.712534697288
Abingdon High School,#0,5541b804,Teresa Berry,276-739-3200,-81.9543904395,36.719963863716
Abingdon Litter and Recycling Program,#0,5541b804,John Dew,276-628-1367,-81.975230900894,36.710506745717
Acquinton Elementary School,#0,5541b804,Beverly Young,804-769-3739,-77.034232694429,37.695041991804
"Afro-American Historical Association,Fauquier County (AAHA)",#0,5541b804,Karen White,540-253-7488,-77.771363244588,38.863244760063
"Aging, Department of",#0,5541b804,Patricia Cummins,(804) 662-9333,-77.544830955871,37.602521305862
"Agriculture and Consumer Services, Department of",#0,5541b804,Joel Stopha,804-371-8991,-77.432778275644,37.537874742414
Agriculture in the Classroom,#0,5541b804,Tammy Maxey,804-290-1025,-77.649720541505,37.611532976793
Airfield 4-H Educational Center,#0,5541b804,Jim Williams,757-899-4901,-77.033197982513,36.910735061459
Albert Harris Elementary School,#0,5541b804,Travis Clemons,276-403-5705,-79.852047847887,36.674955371999
Alexandria City Public Schools,#0,5541b804,David Conrath,703-824-6686,-77.119224648544,38.834386253965
"Alexandria, Solid Waste & Recycling Program",#0,5541b804,Judy Lo,703-838-5041,-77.053608614385,38.796829906899
Alice Ferguson Foundation,#0,5541b804,Lori Arguelles,301-292-5665,-77.042655113622,38.686955276302
"Amazement Square, The Righmire Children's Museum",#0,5541b804,"Donna LaFratta, Human Resources Manager",434-845-1888,-79.140650441665,37.416413392341
Amelia County Middle School,#0,5541b804,"Shirley Booker & Kathy Stuart, Principals",804-561-4422,-77.983848180101,37.328138668063
American Lung Association of VA,#0,5541b804,Gabrielle Steele,202-785-3355,-77.029837536705,38.896680093968
"American Water Works Association (AWWA), VA Section",#0,5541b804,Cathy Larue,757-363-1760,-76.139999512979,36.900000536928
Amherst County Recreation and Parks,#0,5541b804,Allan Bumgarner,434-946-9371,-79.049174785783,37.581829969812
Amherst County Solid Waste and Litter Prevention,#0,5541b804,Teresa M. Nuckols,434-846-3324,-79.028641835723,37.473096677229
Appalachia Elementary,#0,5541b804,Matthew Dysart,276-565-1115,-82.745611680148,36.924605258826
Appalachian Sustainable Development,#0,5541b804,Gina Patrick,276-623-1121,-81.981753668187,36.709052494234
Appalachian Trail Conservancy,#0,5541b804,Angie Sheldon,540-953-3571,-80.402493836068,37.198273355763
"Apple Ridge Farm, Inc.",#0,5541b804,Andrea Goodrum,540-982-1322,-79.945414491987,37.269651122008
Appomattox County Recycling and Litter Prevention,#0,5541b804,Wanda McCormick,434-352-8184,-78.745222361679,37.352314926741
Arcadia Middle School,#0,5541b804,Suzy Corson,(757) 824-4862,-75.57931096129,37.925855294763
Arlington County Environmental Services,#0,5541b804,Erik Grabowsky,703-228-7953,-77.092808127581,38.84009269506
Arlington Fairfax Chapter of the Izaak Walton League of America,#0,5541b804,Colin Riley,703-200-3994,-77.456937303344,38.818917159941
Arlington Outdoor Education Association,#0,5541b804,Neil Heinekamp,703-228-7650,-77.817312796329,38.718944158247
Arlington Science Focus School,#0,5541b804,Mary Begley,703-228-7670,-77.102271173208,38.890072705835
Arlingtonians for a Clean Environment,#0,5541b804,Eleanor Hodges,703-228-6427,-77.087103358006,38.834462385029
Arthur Ashe Elementary School (VaN School),#0,5541b804,Kecia Lipscomb,804-343-6550,-77.364140140977,37.571864517375
Ashland Elementary School,#0,5541b804,"Teresa Mullins, Science Teacher",(703) 583-8774,-77.394162904754,38.623068484861
Atlee High School,#0,5541b804,Jennifer Cohodas,804-723-2100,-77.410020397453,37.664462970784
Auburn Middle School,#0,5541b804,Jennifer Davis,540-422-7410,-77.716516356685,38.737849042831
Auburnlea Farm,#0,5541b804,Mary Bennett,804-380-1568,-79.026278665543,37.146557031122
Audubon Society of Northern Virginia (Annandale),#0,5541b804,Bruce Johnson,703-438-6008,-77.330731624789,38.951610669234
Augusta County for Litter Prevention and Recycling,#0,5541b804,Candy Hensley,540-245-5615,-79.008360799817,38.202076426304
Augusta County Public Schools,#0,5541b804,Jenny Groh,540-245-5120,-78.98946326349,38.117968625763
Augusta County Service Authority,#0,5541b804,,540-245-5670,-79.008360245494,38.202076937009
Averett University (Biology/Environmental Science),#0,5541b804,James  Caldwell,434-791-5766,-79.412899226204,36.577024359249
Axton Elementary School,#0,5541b804,Jo Ellen Hylton,276-650-1193,-79.714344610767,36.639134463955
Aylett Country Day School,#0,5541b804,Robin D. Taylor,804-443-3214,-76.941135591775,37.806764499044
B.C. Charles Elementary School (VaN School),#0,5541b804,Reggie Alston,757-886-7750,-76.534616882725,37.092865812344
Back Bay National Wildlife Refuge,#0,5541b804,Mary Tilton,757-619-6429,-75.987091877898,36.725689355616
Bacon District Elementary School,#0,5541b804,Sylvia Lockett,434-735-8612,-78.570966587263,36.886365867851
Banshee Reeks Nature Preserve,#0,5541b804,Ron Circe,703-669-0316,-77.599694699613,39.028023595598
Battery Park,#0,5541b804,Karen Wylie,804-646-0954,-77.441501457237,37.568915729335
Bayside Elementary School,#0,5541b804,Catherine Brumm,757-648-2080,-76.179265666737,36.895801062484
Bayside Middle School,#0,5541b804,Jackie Blackwell,757-648-4127,-76.159315930713,36.867454610561
Baywood Elementary School,#0,5541b804,Susie Funk,276-773-2832,-81.146244043538,36.622278262377
Beagle Ridge Herb Farm & Environmental Education Center,#0,5541b804,Ellen Reynolds,276-621-4511,-81.127959052568,36.867934126482
Bear Mountain Farm and Wilderness Retreat,#0,5541b804,,540-468-2700,-79.580600017257,38.412345640604
Bear Path Acres,#0,5541b804,Debbie Jeter,757-516-8774,-76.966401997787,36.545150539262
Beaverdam Elementary School (VaN School),#0,5541b804,"Charles Joseph, III",804-449-6373,-77.642613739018,37.934158137749
Beaverdam Park,#0,5541b804,Chris Smith,804-693-2786,-76.534832373674,37.448585854994
Beaverwood Lake Association,#0,5541b804,Walter Goodrich,,-78.185756911458,37.931617632572
Bedford City Public Works - Keep Bedford Beautiful Commission,#0,5541b804,D. W. Lawhorne,540-587-6083,-79.521043090815,37.334585734165
Bedford County Department of Solid Waste,#0,5541b804,Vicki Esposito,540-586-7656,-79.522821601868,37.333936254483
Bedford County Public Schools,#0,5541b804,"Scott Graham, Science Lead",540.586.1045,-79.524719219008,37.331622007235
Belfield Elementary School,#0,5541b804,Alicia hargrove,434-634-6048,-77.543111857894,36.688257179694
Belle Heth Elementary School,#0,5541b804,Eric L. Bucey,540-633-6270,-80.557299564468,37.132194671251
Belle Isle State Park,#0,5541b804,Charlene Talcott,804-462-5030,-76.582973994831,37.781302912865
Belle View Elementary School,#0,5541b804,Carolyn Bush,703-660-8300,-77.061344318503,38.772529984259
Berkeley Glen Elementary School,#0,5541b804,Michael Freeman,540-946-4680,-78.898815509295,38.055570799988
Berkeley Middle School,#0,5541b804,Karen M. Swann,757-229-8051,-76.738832035471,37.274583671347
Bessie Weller Elementary School,#0,5541b804,Chris Bryant,540-332-3940,-79.070852653537,38.139209718477
Bethel Roots & Shoots Club,#0,5541b804,,(703) 779-7745,-77.558565199179,39.207032309439
Better World Betty,#0,5541b804,Teri Kent,4344665157,-78.488914777922,38.025492546861
Bettie F. Williams Elementary School,#0,5541b804,Wendy Bennett Singleton,757-648-4080,-76.163134132035,36.86304496758
Bettie Weaver Elementary School,#0,5541b804,Dr. Holly B. Richard,804-378-2540,-77.652126616067,37.548996629162
Beverly Manor Elementary School,#0,5541b804,Dawn Young,540-885-8024,-79.120205290089,38.147675745238
Big Island Elementary School,#0,5541b804,Barbara Rezzonico,540-586-1045,-79.524719347893,37.331619518007
Big Walker Lookout,#0,5541b804,,276-663-4016,-81.195261669752,36.994662873222
Big Walker Soil and Water Conservation District,#0,5541b804,Rachel Havens,,-81.055592330333,36.952476505715
Bike Virginia,#0,5541b804,Kristine,757-229-0507,-77.425593728334,37.533057120154
Bishop Sullivan Catholic High School,#0,5541b804,Carol Stapanowich,757.467.2881,-76.133312633673,36.809845534022
Blacksburg High School,#0,5541b804,Wesley Gwaltney,540-951-5706,-80.459395890654,37.21180428198
Blue Ridge Center for Environmental Stewardship,#0,5541b804,Ashley Oliver,540-668-7640,-77.721098563501,39.293595510833
Blue Ridge Community College,#0,5541b804,Susie Shomo,540-234-9261,-78.940487577856,38.281953022852
Blue Ridge Eco Shop,#0,5541b804,Paige Mattson,434-296-0042,-78.479546383982,38.030434956313
Blue Ridge Environmental Network,#0,5541b804,Bill Modica,540-387-2782,-80.031878552169,37.316032782745
Blue Ridge Middle School,#0,5541b804,Brion Bell,540-751-2520,-77.707308787668,39.128357550843
Blue Ridge Outdoors Magazine,#0,5541b804,Blake DeMaso,434-817-2755,-78.481512122728,38.03224047054
Blue Ridge Public Television,#0,5541b804,Linda Pharis,(540)344-0991,-79.977114280296,37.248449563788
"Blue Ridge Wildflower Society, The",#0,5541b804,Cindy Burkes,(540) 977-0868,-79.993385502678,37.260969720837
Blue Ridge Wildlife Center,#0,5541b804,Belinda Burwell,540-837-9000,-78.004671166013,39.054392504751
Blue Sky Fund,#0,5541b804,Lawson Wijesooriya,804-415-8782,-77.404354846663,37.517227808597
Bluebird  Gap Farm,#0,5541b804,Jim Seward,757.827.2765,-76.388919029209,37.035062757892
Bluestone High School,#0,5541b804,Christina Seay,434-372-5177,-78.495432330408,36.705980187786
Boiling Spring Elementary School,#0,5541b804,Amy Dew,540-965-1817,-80.092266713651,37.688231035139
Booker T. Washington Middle School,#0,5541b804,Deborah L. Fields,757-928-6860 ext. 1104,-76.410340460468,36.995380048504
Boonsboro Elementary School (VaN School),#0,5541b804,Beth Williams,434-384-2881,-79.260981597824,37.451094315499
Botetourt County  - Environmental Management,#0,5541b804,Ronald Smith,540-473-8316,-79.807758722364,37.550947171663
"Bowling Green, Town - Public Works",#0,5541b804,William Stanley,804-633-6212,-77.344792057393,38.05123242544
Boxerwood Nature Center and Woodland Garden,#0,5541b804,Elsie Sheffield,540-463-2697,-79.458459089139,37.77822150109
Brethren Woods Camp & Retreat Center,#0,5541b804,,540-269-2741,-78.727661291441,38.488708959202
Brighton Elementary School,#0,5541b804,Barbara Walker,757-393-8870,-76.310844320035,36.820140650004
Broadlands Naturally,#0,5541b804,Oya Simpson,703-725-8040,-77.513793268638,39.010297138126
Broadwater Academy,#0,5541b804,Joseph Spagnolo,757-442-9041,-75.847849280342,37.52872241214
Broadway High School,#0,5541b804,Russell Kohrs,540-896-7081,-78.794743622713,38.60559346453
Brook Road Academy,#0,5541b804,Sarah Croscutt,(804) 553-3226,-77.462152108569,37.634038257356
Browne Academy,#0,5541b804,Mike Sasso,703-960-3000 ext. 1039,-77.083802393624,38.788954538336
Brunswick County Litter Control Committee,#0,5541b804,Ella Ridley,434-848-3562,-77.783832045986,36.811474757389
Buchanan County Litter Enforcement and Recycling,#0,5541b804,Jerry Ward,276-935-6106,-82.096702871536,37.277190273624
Buckingham County Solid Waste,#0,5541b804,Carolyn Amos,434-969-4242,-77.565829726171,39.100378709481
Buckingham Primary School,#0,5541b804,Heather Page,434-983-2861,-78.511058055239,37.541318177475
Buena Vista City Public Schools,#0,5541b804,Mary Holm,540-261-2129,-79.350877698602,37.736616003937
"Bull Run Mountains Conservancy, Inc.",#0,5541b804,Michele Thieme,703-753-2631,-77.705558384847,38.824626434893
Butterflies in Flight,#0,5541b804,Catherine Short,804 843-3723,-76.803829230402,37.561246716231
Byrd Elementary School,#0,5541b804,Mr. James Hopkins,804-556-5380,-78.05783895063,37.757418981324
C.C. Wells Elementary School,#0,5541b804,"Virginia C. Patterson, Principal",804-768-6265,-77.43946969426,37.335885495104
"Cabell Brand Center for Global Poverty and Resource Sustainability Studies, The",#0,5541b804,Dr. Tamim Younos,540-375-6750,-80.069110815584,37.291971738202
Cacapon Institute,#0,5541b804,"Frank Rodgers, Education and Outreach",304-856-1385,-78.463823408134,39.191442665155
Camp Alta Mons,#0,5541b804,Jason Masching,540-268-2409,-80.250706118807,37.096046237179
Camp Chanco on the James,#0,5541b804,Jim Sitzler,757-294-3012 ,-76.90018644373,37.196858365781
Camp E. W. Young (Norfolk Public Schools) -VaN School),#0,5541b804,Kathleen Nowitzky ,757-547-4245,-76.27814985001,36.728750765104
Camp Friendship Environmental Education,#0,5541b804,,434-589-8950,-78.264731165854,37.885324807838
Camp Glenkirk,#0,5541b804,Cheryl Hartman,(703) 754-0126,-77.612766302489,38.77401582456
Camp Hanover,#0,5541b804,,804-779-2811,-77.207630803613,37.606799645279
Camp Holiday Trails,#0,5541b804,Ashleigh Suthers,434-977-3781,-78.562211522614,38.023151023656
Camp Horizons,#0,5541b804,,(540)-896-7600,-78.716890687049,38.514026431027
Camp Kum-Ba-Yah,#0,5541b804,Linda Irwin,434-384-1755,-79.207796178382,37.44253678402
Campbell County Litter/Recycling Program,#0,5541b804,Diane Dodd,434-821-7125,-79.157128609162,37.27992755473
Canaan Valley Institute,#0,5541b804,Vicki Fenwick,(304) 259-4739,-79.429582467832,39.145721587348
Capital Region Earth Force,#0,5541b804,Kurt Moser,703-838-9074,-77.119225893391,38.83438404456
"Capital Region Land Conservancy, Inc.",#0,5541b804,Tara Quinn,804-301-5352,-77.521811080123,37.573560268575
Carlin Springs Elementary School,#0,5541b804,Anne VorderBruegge,703-228-8409,-77.085349660502,38.886523156063
Caroline Furnace Lutheran Camp & Retreat Center,#0,5541b804,Wayne Shelor,540-933-6266,-78.510766207774,38.749103707679
Caroline Middle School,#0,5541b804,Dolly G. Lindsay,804-633-5088,-77.342150796428,38.038994468144
Carroll County Intermediate School,#0,5541b804,Linda M. Dalton,276-728-3191,-80.736937688115,36.768798472309
Carroll County Litter and Reycling,#0,5541b804,Trish Hash,276.730.3015,-80.736833523986,36.768669159576
Cashell Donahoe Elementary School (VaN School),#0,5541b804,"J. Koontz, Principal",804-328-4035,-77.293499825202,37.537512719908
Castlewood High School,#0,5541b804,"Laymon Kiser ""Butch",276-762-9449,-82.27958397652,36.890107848992
Center for Rural Culture,#0,5541b804,,804-878-2166  ,-77.886571910449,37.686899880653
"Center for Watershed Protection, Inc.",#0,5541b804,Hye Yeong Kwon,410-461-8323,-76.800487960376,39.268739447159
Central Elementary School,#0,5541b804,Donna Davis,540-821-5227,-79.474820720973,37.846924811514
Central High School (Shenandoah County),#0,5541b804,Melissa D. Hensley,540-459-2161,-78.52271587572,38.867313992375
Central Middle School,#0,5541b804,Carolyn M. Baker,434-542-5151,-78.635958629157,37.052821336908
Central Shenandoah Planning District Commission,#0,5541b804,Bonnie Riedesel,540-885-5174,-79.057551941609,38.168192118177
Central Virginia Land Conservancy (CVLC)-Region 2000 and Nelson,#0,5541b804,Jeff Smith,434-942-4320,-79.204423305145,37.437608672891
Central Virginia Waste Management Authority(CVWMA),#0,5541b804,Nancy Drumheller,804-359-8413,-77.471713541324,37.584630637101
Centreville High School (CVHS),#0,5541b804,Jean Cole-Kleitz,703-802-5497,-77.410643936,38.8252520695
Chancellor Elementary School,#0,5541b804,Shawn Hudson,540-786-6123,-77.581436167822,38.293879715055
Charles City Clean Community Commission,#0,5541b804,Denise Williams & John Bragg,804-652-4707,-77.075699421,37.340213999818
Charles City County Dept. of Development,#0,5541b804,John Bragg,804-652-4707,-77.075703606825,37.340211357959
Charlotte County Litter Prevention and Recycling,#0,5541b804,Susan Adams,434-542-5117,-78.635958632013,37.052823774539
Chase City Elementary School,#0,5541b804,Frederick Taylor,804-372-4770,-78.468656246392,36.81641623559
"Chesapeake Bay Foundation, Virginia State Office",#0,5541b804,Bill Portlock,512-4536,-77.433993351171,37.537134467225
Chesapeake Bay Governor's School for Marine and Environmental Science,#0,5541b804,Dianne Pollard,804-443-0267,-76.862433346959,37.930461127168
"Chesapeake Environmental Improvement Council, City of Chesapeake",#0,5541b804,Gladys Jones,757-382-6728,-76.245027815023,36.720557998185
Chesapeake Experience,#0,5541b804,Jill Bieri,757-890-0502,-76.452950144686,37.120309689035
Chesapeake Wildlife Heritage,#0,5541b804,Austin Jamison,434-825-7587,-76.068697705108,38.776943343798
Chesterfield Community High School,#0,5541b804,Susan Dandridge,804-594-1704,-77.501765193586,37.379875516839
Chesterfield County Cooperative Extension,#0,5541b804,Linda Jackson Cole,804-751-4401,-77.50631532937,37.377173613365
Chesterfield County Department of Environmental Engineering,#0,5541b804,Lorne Field,804-748-1920,-77.504862278251,37.380252002964
Chesterfield County Environmental Engineering,#0,5541b804,"Richard M. McElfish, PE",(804) 748-1035,-77.504864837098,37.380249866941
Chesterfield County Parks and Recreation,#0,5541b804,Mike Golden,804-748-1624,-77.506192649125,37.377045974512
Chesterfield County Waste and Resource Recovery,#0,5541b804,Pam Cooper,804-743-8346,-77.507750402033,37.376833535371
"Children's Museum of Richmond, Education",#0,5541b804,Claire Mehalick,804-474-7053,-77.467926446159,37.561666637972
"Children's Museum of Virginia, Education",#0,5541b804,,757-393-5258,-76.298836894062,36.834917547638
Chilhowie Elementary School,#0,5541b804,Lelia Rash,276-646-8220,-81.512874484238,36.833283353771
Chilhowie High School (VaN School),#0,5541b804,Mike Sturgill,276-646-8966,-81.674327439392,36.804710470864
Chincoteague Elementary School (VaN School),#0,5541b804,Karen Riner,757-336-5545,-75.358654575228,37.939777717227
Chincoteague National Wildlife Refuge,#0,5541b804,,757-336-6122,-75.345062542335,37.885489024736
Chippokes Plantation State Park,#0,5541b804,,757-294-3625,-76.740359456512,37.146275931991
Christiansburg Elementary School(VaN School) & Wildlife Club,#0,5541b804,Mrs. Burton,(540) 382-5100,-80.391581208844,37.130685444823
Christiansburg Middle School,#0,5541b804,Sherri Bolick,540-904-7401,-79.924100284835,37.257654827905
Churchland Academy Elementary School,#0,5541b804,Karen Clark,804-646-5659,-76.382548372666,36.881148038196
Churchland Primary & Intermediate School(VaN School),#0,5541b804,Cora Freeman,757-686-2519,-76.385079836834,36.890896297227
Churchville Elementary School,#0,5541b804,"Lori Cox, Elementary Science Curriculum Supervisor",540-337-6036,-79.160056079482,38.22249069997
Citizens for a Clean Lynchburg,#0,5541b804,Nels Erickson,434-401-5733 or 434-847-8788,-79.142557334037,37.414078001553
Citizens for Fauquier County,#0,5541b804,Mel Bearns,540-347-7610,-77.795267532638,38.713451740817
"City of Norfolk, Bureau of Environmental Services",#0,5541b804,Kevin R. Du Bois,757-621-2564,-76.285800280198,36.844508136293
Clarke County Natural Resource Planner,#0,5541b804,Alison Teetor,540-955-5134,-77.980344246068,39.152325413193
Claude Moore Park,#0,5541b804,"Merry Breed, Park Manager",571-258-3700,-77.429126562735,39.006700330392
Claytor Lake State Park,#0,5541b804,"The park offers swimming, camping, cabins, lodges, a meeting facility, nature and history programs, miles of hiking trails, and a visitor center.",540-643-2500,-80.622733785747,37.058846517995
Claytor Nature Study Center of Lynchburg College,#0,5541b804,Gregory Eaton,540-587-6740,-79.182926927638,37.400713106061
"Clean Fairfax Council, Inc.",#0,5541b804,Jennifer Cole,703-324-5471,-77.351651210514,39.03407352351
Clean Valley Council Inc.,#0,5541b804,Christina Siegel,540-345-5523,-79.95113188857,37.269853726606
Clean Virginia Waterways,#0,5541b804,Katie  Register,434-395-2602,-78.396171446335,37.301207735024
Clearbrook Elementary School (VaN School),#0,5541b804,Karen Pendleton,540-772-7555,-79.951568676033,37.204238619996
"Clinch Coalition, The",#0,5541b804,Christopher Clark,276-479-2176,-82.414592545082,36.752880616096
Clover Hill High School,#0,5541b804,Michelle Huber,(804) 639-4940,-77.640285771303,37.447718981647
Coles Elementary School,#0,5541b804,Kathryn Forgas,703-791-3141,-77.42945668962,38.657085581485
Colonial Trail Elementary School,#0,5541b804,"Phil Cantone, Principal",804-364-0055,-77.614227302483,37.660288831975
Community Development International (CDI),#0,5541b804,Kevin Jamison,7573733219,-76.029762911536,36.77661615691
Community Mediation Center of Norfolk VA,#0,5541b804,Chinedu Onyedike,757-480-2777x257,-76.259162006374,36.90591323257
Computer Recycling of Virginia,#0,5541b804,Lisa Parkhurst,804-445-9672,-76.86259048602,37.930720032242
"Conservation and Recreation (VA), Department of",#0,5541b804,Sheila Barnett,804-786-1815,-77.431619879982,37.537652849419
"Conservation Services, Inc.",#0,5541b804,,(540) 941-0067,-78.871666860459,38.074545622455
"Cooper Elementary Magnet School for Technology, William Mason (VaN School)",#0,5541b804,Shirley Spyolt,757-825-4645,-76.385431659366,37.05246639246
"Cora Kelly School for Math, Science and Technology",#0,5541b804,"Mr. Mark Walker, STEM Coordinator",703-706-4420,-77.057551859011,38.837417394592
Corporate Landing Middle School,#0,5541b804,Sherry Kelly,757-648-4500,-76.012443971107,36.787841357754
County of Spotsylvania Department of General Services,#0,5541b804,Clara Mills,540-507-7334,-77.497488684939,38.274050119191
Cousteau Society,#0,5541b804,Tarik Chekchak,(757) 523-9335,-76.2368618031,36.773444951952
Coventry Elementary School,#0,5541b804,Paula Sasin,757-898-0403,-76.440015515713,37.106154161083
Covington High School,#0,5541b804,Pat Braden,540-965-1400,-79.98683683644,37.787272588254
CRAIG COUNTY BEAUTIFICATION COMMITTEE,#0,5541b804,"SUZANNE HOLTH,",540-864-5010,-80.108267652877,37.503128237143
Crater Planning District Commission,#0,5541b804,Judith Smith,(804) 861-1666,-77.384537269066,37.202357508896
Creative Minds Publications,#0,5541b804,Katryn Starke,804.740.6010,-77.607789649453,37.629014937545
Crestview Elementary School,#0,5541b804,Cindy Harris,804-673-3775,-77.520137244444,37.600602211283
Crestwood Elementary School (VaN School),#0,5541b804,Lisa Rockwell,804-560-2710,-77.537060492094,37.526644732239
Culpeper County Litter Prevention Program,#0,5541b804,Jane Cresswell,540-727-3409,-77.99641007492,38.473411433182
Cumberland High School,#0,5541b804,Chip Jones,804-492-4724,-78.245342963491,37.496042465857
Cumberland Plateau Regional Waste Management Authority,#0,5541b804,Toby Edwards,276-889-1778,-82.114513119511,36.894070086971
Curtis Elementary School,#0,5541b804,Barbara Newton,804-768-6175,-77.433285252491,37.36123948189
Cyrus McCormick Farm,#0,5541b804,David Fiske,540-377-2255,-79.213369939761,37.931360223774
Damascus Middle School,#0,5541b804,Dixie Hunter,276-739-4100,-81.804641215155,36.639514410986
Dan River Middle School,#0,5541b804,Dr. Deborah Powell,434-432-8185,-79.393425614897,36.826163355353
Daniels Run Elementary School,#0,5541b804,Adam Erbrecht,703-279-8400,-77.295227719459,38.851974208365
"Danville Parks, Recreation - Ballou Nature Center & Outdoor Recreation",#0,5541b804,Karen Cross,434-799-5215,-79.421790948908,36.571666764973
"Danville Science Center, Science Museum of VA",#0,5541b804,Sonya Wolen,434-791-5160,-79.385434929589,36.584267831824
Deer Park Elementary School (VaN School),#0,5541b804,Mary Jo Anastatio,757-591-7470,-76.475532347267,37.071903298013
Deltaville Maritime Museum and Holly Point Nature Park,#0,5541b804,"James M. Mackey, III",804-776-7200,-76.326789102771,37.552864114481
Denizen Media,#0,5541b804,Beverly Pearce,540 877 9077,-78.262158779893,39.192356538932
Dickenson County Litter Control and Recycling Office,#0,5541b804,Eugene Mullins,276-835-8806,-82.455983982333,37.150108605362
Dillwyn Elementary School,#0,5541b804,Heather Page,434-983-2861,-78.511058879571,37.541315953241
Dillwyn Primary School,#0,5541b804,Heather Page,434-983-2861,-78.511059075159,37.541315926137
Dinwiddie County 4-H,#0,5541b804,Mike Parrish,804-469-4514,-77.586651951396,37.077932101482
Dirty Hands Garden Center,#0,5541b804,Claudia Swanson,804-598-8945,-77.823462899966,37.522515923724
Discovery Center - Blue Ridge Parkway (Top of Mill Mountain),#0,5541b804,,(540) 853-1236,-79.935412988961,37.249770816768
Dominion Christian School,#0,5541b804,Sharon Dykhoff,(703) 758-1055,-77.325372484816,38.905002586233
Dominion High School,#0,5541b804,Mary Young-Lutz,571-434-4400,-77.376234706828,39.026803578267
Douthat State Park Environmental Education Group,#0,5541b804,Ray Keen,540-862-8114,-79.695107878011,37.990070933597
Duffield Primary School,#0,5541b804,Tammy Quillen,276-386-6118,-82.57583400648,36.641110010073
E.B. Stanley Middle School,#0,5541b804,Charlene Gross,276-739-3300,-81.956080416024,36.724030194497
"E3 Summer Science Camp, Exploration and Enjoyment in the Env.",#0,5541b804,Ann Mallek,434-978-1150,-78.468064094296,38.167627888242
"Earth Sangha, Inc.",#0,5541b804,Chris Bright,703-764-4830,-77.298060665343,38.812686637588
Earth Space,#0,5541b804,"Nancy Striniste, MLD",703-532-0018,-77.142158065223,38.888374948324
Eastern Area Grounds for Learning Environmental Science (E.A.G.L.E.S.),#0,5541b804,Joy Greene,703-490-5162,-77.239186022132,38.657938637753
Eastern Shore Agricultural Research and Extension Center,#0,5541b804,Lauren Peyton Seltzer,757-414-0724,-75.821042354659,37.584585151561
Eastern Shore of Virginia Resource Conservation and Development Council,#0,5541b804,Sara Reiter,,-75.760024014297,37.650452627041
Eastern Shore of Virginia Tourism,#0,5541b804,Allan Burns,(757) 787-8268,-75.689161943718,37.716407189969
Eastern Virginia Rivers National Wildlife Refuge Complex,#0,5541b804,Joseph McCauley,804-333-1470,-76.869103705108,38.020384105164
Edgar Allen Poe Middle School,#0,5541b804,Dr. Mark Emery,571-423-1270,-77.22452357939,38.868104888874
"Education (VA), Department of",#0,5541b804,Barbara Young,804-371-0249,-77.42985624571,37.536641465836
Edward W. Wyatt Middle School,#0,5541b804,Alicia Hargrove,434-634-6048,-77.543108741212,36.688254000004
"Elizabeth River Project, The",#0,5541b804,Majorie Jackson,757-399-7487,-76.296213965879,36.836607732978
Elkton Middle School (VaN School),#0,5541b804,,540-298-1228,-78.608512549982,38.404691269086
Elmont Elementary School,#0,5541b804,Jimmy Johnson,804-365-8100,-77.507884828116,37.716508794713
Emerick Elementary School,#0,5541b804,Dawn Haddock,540-751-2440,-77.718910971606,39.130227908969
Emory & Henry College Environmental Studies,#0,5541b804,E. H.  Davis,540-944-6181,-81.826515699671,36.77342987331
Enrichmond,#0,5541b804,John Sydnor,804-646-0954,-77.427683920588,37.534343612586
Environment Virginia Symposium,#0,5541b804,Amy Dehart,(540) 464-7361,-79.440376020297,37.791126375648
"Environmental Alliance, Inc.",#0,5541b804,James Bernard,804-752-3558,-77.441279812746,37.69894139968
"Environmental Quality (VA), Department of",#0,5541b804,"Ann Regn, Director, VA Office of EE",804-698-4442,-77.438298360588,37.539246231493
"Environmental Services & Consulting, LLC",#0,5541b804,Stuart Lynde,540-550-0144,-80.396497055641,37.130903906995
"Environmental Solutions, Inc.",#0,5541b804,Brenda Robinson,804-416-1150,-77.317538576427,37.351634845809
Ettrick Elementary School,#0,5541b804,Kimberly Reynolds,804-594-1704,-77.501761397795,37.379878203743
Eureka Elementary School (Charlotte County),#0,5541b804,Andy Heintlzeman,434-736-8458,-78.553487069625,37.041297266524
Evergreen Elementary School (VaN School),#0,5541b804,Matt Maher,804-378-2400,-77.632992684158,37.464671042451
Fairfax County Park Authority,#0,5541b804,Harold L. Strickland,703-324-7329,-77.362777663019,38.855196600624
Fairfax County Park Foundation,#0,5541b804,Mr. Gerald Zavala,703-324-8532,-77.362779985397,38.855196839876
Fairview Elementary School (Grayson County),#0,5541b804,Susie Funk,276-773-2832,-81.146248390347,36.622277599137
Fairview Elementary School (Roanoke),#0,5541b804,Jonathan Pait,540-853-2859,-79.940050982443,37.283444423482
Fairy Stone State Park,#0,5541b804,Sam Jensen,276-930-2424,-80.125945786894,36.784773475502
Falling Creek Ironworks,#0,5541b804,Norma J. Corbin,804-379-1666,-77.483535595356,37.456816476074
Fauquier County Environmental Services,#0,5541b804,Davina Bratcher,540-422-8840,-77.783388146458,38.680706022049
Fauquier High School,#0,5541b804,Margaret Humphries,540-347-6100,-77.814953546925,38.718632864464
Ferrum College and Smith Mountain Lake Water Quality Program,#0,5541b804,Dr. Carolyn L. Thomas,540-4368,-80.022463483389,36.92767594572
Ferrum College- Environmental Science Program,#0,5541b804,"Todd Fredericksen, Dr.",540-365-4360,-80.013369646555,36.922919747642
Ferrum Outdoors,#0,5541b804,Dan Caston,540/365-4442,-80.024148505456,36.926564856882
Fieldale-Collinsville Middle School,#0,5541b804,Shanna Francisco-King,276-656-5493,-79.870530768833,36.739407825739
Fine Arts Center for New River Valley,#0,5541b804,Judy Ison,540-980-7363,-80.780603664034,37.047526614023
First Landing State Park,#0,5541b804,Fred Hazelwood,757-412-2300,-76.05274858382,36.918526913133
Fishburn Park Elementary School,#0,5541b804,Ashley Ring,540-761-4486,-79.972929502622,37.248778152315
Fishburn Park Elementary School,#0,5541b804,Ashley Ring,540-853-2931,-79.983548872433,37.240330497383
Flint Hill School (VaN School),#0,5541b804,Thomas  Whitworth,703-584-2300,-77.319755372897,38.870374605466
Flora Crittenden Middle School,#0,5541b804,"Jacob M. Wilson, III",757-272-9003,-76.49395743046,37.073212880219
Flower Camp on the James River,#0,5541b804,Nancy Ross Hugo,804-339-2338,-78.638177229544,37.707608067998
Floyd County High School,#0,5541b804,Tony Deibler,540-745-9450,-80.311290828549,36.907523487684
Forest Middle School,#0,5541b804,Debby Foran,434-525-6630,-79.313833650834,37.368343939017
Fort Defiance High School,#0,5541b804,Cindy Schroer,540-245-5050,-78.973242553198,38.247246883529
Fort Lewis Elementary School (VaN School),#0,5541b804,Cindy Klimaitis,540-387-6594,-80.11309836139,37.282024638735
Fort Pickett- Environmental Program,#0,5541b804,J.B. Daniel,434-298-6393,-77.997224505081,37.08042832335
Foundation for Virginia's Natural Resources,#0,5541b804,Jay Gilliam,434.977.6555,-79.207267656858,37.921798095469
Franklin High School,#0,5541b804,Linda G. Staylor,434-298-7847,-76.923733976206,36.677203246478
Frederick County Public Schools,#0,5541b804,Kelley Aitken,540-662-3888,-78.186709847169,39.190136263502
Frederick County Solid Waste/Recycling,#0,5541b804,Gloria Puffinburger,540-665-5643,-78.162401366241,39.184220318472
Freedom High School,#0,5541b804,Darin Thompson,703-583-1405,-77.436711845833,38.635584251183
Friends of Accotink Creek,#0,5541b804,Friends of Accotink Creek,NO PHONE,-77.204030830972,38.792145909136
Friends of Black's Run Greenway,#0,5541b804,John B. Reeves,540. 433. 9358,-80.77978873718,37.047898313796
Friends of Chesterfield's Riverfront,#0,5541b804,Mark Endries,no phone,-77.507749882227,37.376831319294
Friends of Claytor Lake,#0,5541b804,,540-674-0166,-80.779792551735,37.047901197192
Friends of Dragon Run,#0,5541b804,Davis Rhodes,757-484-9522,-76.54513557871,37.415547354142
Friends of Dyke Marsh,#0,5541b804,Glenda Booth,703-765-5233,-77.055021171873,38.74747590588
Friends of Forest Hill Park- Clean City Commission Task Force,#0,5541b804,Monica Rumsey,804-233-7361,-77.481475361055,37.517270881791
Friends of James River Park,#0,5541b804,Ralph White,804‐646‐8911,-77.449428275674,37.550493713202
Friends of Pocahontas State Park,#0,5541b804,Dan Quesenberry,804-796-4472,-77.580910992041,37.384554812715
Friends of Rockfish Watershed (FOR Watershed),#0,5541b804,,,-78.870745406351,37.759809531424
Friends of Runnymeade Park-Herndon,#0,5541b804,Ann H. Csonka,,-78.656891264259,37.431576389116
Friends of Stafford Creeks,#0,5541b804,Patricia Kurpiel,540-657-6674,-77.29957012792,38.353771216018
Friends of the Blue Ridge Parkway,#0,5541b804,"Susan J. Mills, Executive Director",540-772-2992,-79.991426832649,37.225065782792
Friends of the North Fork of the Shenandoah River,#0,5541b804,Leslie Mitchell,540-459-9550,-78.507990394712,38.882588691099
Friends of the Occoquan,#0,5541b804,German Vanegas,703-624-7124,-77.367145618192,38.708827765931
Friends of the Onancock School,#0,5541b804,Donna Ware,757-302-1331,-75.747304323126,37.709626151933
Friends of the Pedlar,#0,5541b804,Judy Strang,434-922-7510,-79.261760311651,37.585759841304
Friends of the Potomac River Refuges,#0,5541b804,Joan Patterson,703-636-4115,-77.264309008468,38.676636525636
Friends of the Rappahannock,#0,5541b804,Daria Blom,540-373-3448,-77.484708882636,38.316658396652
Friends of the Rivers of Virginia,#0,5541b804,Bill Tanger,540-266-0237,-79.947806277994,37.373470652595
Friends of the Shenandoah River,#0,5541b804,Karen Anderson,540-665-1286,-78.157908069374,39.169113382652
Fries Middle School,#0,5541b804,Susie Funk,276-773-2832,-81.146244713253,36.622277688894
Front Royal Grotto,#0,5541b804,Janet Tinkham,540-933-6850,-78.518496288436,38.754880104647
Frontier Culture Museum,#0,5541b804,Sarah Puckett,540-332-7850,-79.042729410575,38.133986123905
Fuqua School,#0,5541b804,Liz Hodges,434-392-4131,-78.473981161287,37.063705865391
"Game and Inland Fisheries (VA), Department of",#0,5541b804,"Suzie Gilley, Wildlife Education",804-367-1000,-77.481660478032,37.572667357465
Garden City Elementary School,#0,5541b804,Jonathan Pait,540-853-2859,-79.940049405898,37.283444999418
Gateway Streetscape Foundation,#0,5541b804,Gerald Lawicki,276-634-4601,-79.893081990449,36.741286587458
"General Services, Department of",#0,5541b804,Ed Gully,804-786-3263,-77.43341638678,37.537628599158
George Mason University,#0,5541b804,Dan Waxman,,-77.085350341043,38.886522821339
George Mason University Sustainability Institute,#0,5541b804,Jenny Upton,703-993-5301,-77.306370355642,38.84622444879
George Rogers Clark Elementary School,#0,5541b804,Gertrude A. Ivory,434-245-2939,-78.48365133898,38.053256244075
George Washington Regional Commission,#0,5541b804,Tim Ware,540-373-2890,-77.45738674753,38.29788655388
"Georgetown School, The",#0,5541b804,Gale Robinson,804-723-3460,-77.38886490668,37.687487550176
Gesher Jewish Day School,#0,5541b804,Zvi Schoenburg,703-978-9789,-77.347897523645,38.839150883144
Get Out In Nature Group,#0,5541b804,Katie Cartwright,,-77.484751728883,37.768681778938
Gibson Magnet School (VaN School),#0,5541b804,Kenny Lewis,434-799-6426,-79.401735672155,36.572020523298
Giles County Public Service Authority,#0,5541b804,Anita Purdue,(540) 921-2525,-80.736698997542,37.329040179699
Girl Scout Commonwealth Council,#0,5541b804,Beth Fellenstein,804-764-3322,-77.3763644922,37.605051488729
Girl Scout Council of Colonial Coast,#0,5541b804,Marcy Gemanotta,757-547-4405,-76.270126482305,36.711194377881
Girl Scouts of Virginia Skyline Council,#0,5541b804,"Sylvie Peterson, Program Director",540-777-5103,-79.992750993891,37.324145224821
Givens Elementary School,#0,5541b804,Heather Keen,276-991-0016,-82.08012833586,36.900942312756
Glade Spring Middle School,#0,5541b804,Bill Lester,276-739-3800,-81.774206348482,36.779670997076
Glebe Elementary School,#0,5541b804,"Ann Calby, Librarian",703-228-6280,-77.120833116659,38.89250427435
Glen Allen Elementary School,#0,5541b804,Theresa Harris,804-756-3040,-77.522705217995,37.678713767753
Glen Cove Elementary School,#0,5541b804,"Jan S. Nichols, Principal",540-561-8135,-80.022032578529,37.320980579565
Glenvar High School,#0,5541b804,Joe Hafey,540-387-6536,-80.138064182472,37.279128027548
Glenvar Middle School,#0,5541b804,Sharon Hill,540-387-6322,-80.138436237409,37.27914189657
Glenwood Elementary School,#0,5541b804,Susan Stuhlman,757-648-2520,-76.139373365608,36.773785371933
Gloucester Clean Community,#0,5541b804,William A. Bell,804-693-5370,-76.535191379961,37.416395051688
Going Green Program - City of Winchester,#0,5541b804,Michael Neese,540-667-1815,-78.162568535935,39.177514990067
Gold Hill Elementary School,#0,5541b804,Heather Page,434-983-2861,-78.511058627038,37.54131503446
Goochland Anti-Littering and Recycling Council,#0,5541b804,K. Leigh Dunn,804-556-5850,-77.890066130784,37.697350268795
Goochland High School (VaN School),#0,5541b804,Michael Newman,804-556-5322,-77.896409406973,37.699713854262
Good Shepherd Episcopal School (VaN School),#0,5541b804,Michael Woodruff,804-231-1452,-77.479062814184,37.519124405028
Goose Creek Association,#0,5541b804,Andrea Rosse,(540) 687-3073,-77.809626529416,38.976032895804
"Governor's School, Maggie Walker, The",#0,5541b804,David Barnes,804-354-6800,-77.454681437413,37.559580966906
Grace Christian School,#0,5541b804,Liz Middleton,540-886-9109,-79.07036307993,38.148979071006
Grace E. Metz Middle School,#0,5541b804,C. Mattia,703-257-8600,-77.462322122338,38.742567147454
Grafton Bethel Elementary School (VaN School),#0,5541b804,Dr. Karen Grass,757-898-0350,-76.453253478779,37.147783371237
Grayson Highlands Elementary School,#0,5541b804,Susie Funk,276-773-2832,-81.146247532749,36.62228071399
Great Bridge Battlefield and Waterways History Foundation,#0,5541b804,Jean Carideo,757-410-7067,-76.216902864375,36.594127986554
Great Dismal Swamp National Wildlife Refuge,#0,5541b804,Visitor Services,757-986-3705,-76.561366137801,36.617772172408
Greater Richmond Chamber of Commerce,#0,5541b804,Kim Scheeler,804-648-1234,-77.438985272549,37.539837577554
Greater Shenandoah Valley Environmental Education Alliance,#0,5541b804,Tamra Willis/Betty Gatewood,540-887-7135,-79.071693704268,38.149579437484
Green Adventure Project,#0,5541b804,Mike Bruscia,434.293.4270,-78.530563487339,37.942510860632
GREEN Alternatives,#0,5541b804,Amanda Mason,757-457-8991,-76.292434680683,36.867725328703
Green Earth Recycling of Virginia,#0,5541b804,,804-639-3343,-77.533212837204,37.466346898886
Green Jobs Alliance,#0,5541b804,Randy Flood,703-732-9049,-76.664380556575,37.233827695661
"Green Seahorse media, LLC: The marlin and the Mermaid ""Help Save the Bay",#0,5541b804,Daniel. R. Ford,757-575-6352,-76.014504402579,36.682270778613
Greenbrier Intermediate School,#0,5541b804,John Sammons,757-578-7080,-76.219085393863,36.78622751793
Greendale Elementary School,#0,5541b804,Allyson Willis,276-739-3500,-82.043965586427,36.750970295271
Greensville Elementary School,#0,5541b804,Alicia Hargrove,434-634-3748,-77.543111735071,36.688256321326
Greenwood Elementary School,#0,5541b804,"Debra Smith, Principal",804-261-2970,-77.486924278935,37.671651772989
Greenwood Partnership,#0,5541b804,Randall Scott Vaughn,804-847-3400,-79.142435394444,37.414578105849
Grymes Memorial School (VaN School),#0,5541b804,,540-672- 9167,-78.136353420737,38.254330798154
Guest River Restoration Project,#0,5541b804,Danielle Dutton,276-926-6621,-82.466590933104,37.14964129015
Halifax County Improvement Council,#0,5541b804,"Jennifer Hochstein, Director",434-222-9448,-79.09696743605,36.718592760279
Halifax High School,#0,5541b804,Linda G. Staylor,434-298-7847,-78.922476408288,36.766922543162
Halifax Middle School,#0,5541b804,Linda G. Staylor,434-298-7847,-78.922480267843,36.766921762339
Hampton Clean City Commission,#0,5541b804,Debbie Blanton,757-727-6394,-76.342990369328,37.028194895649
Hampton Roads Agricultural Research and Extension Center (Va Tech),#0,5541b804,Laurie Fox,757-363-3807,-76.179582401652,36.891901387909
Hampton Roads Alliance for Environmental Education (HRAEE),#0,5541b804,K. Grauberger,(757) 420-8300,-76.281994849369,36.878768202707
Hampton Roads Planning District Commission,#0,5541b804,Julia Hillegass,757-420-8300,-76.235299212911,36.789578193933
Hampton Roads Sanitation District (HRSD),#0,5541b804,Erwin Bonatz,757-460-2261,-76.187191071981,36.896402562848
Hanover Academy,#0,5541b804,Michele Huff,804-798-8413,-77.454523514625,37.760681435603
Hanover Juvenile Correction Center (VaN School),#0,5541b804,Carolyn Ross,804-537-5316,-77.340505455654,37.753985890103
Hanover Parks and Recreation Department,#0,5541b804,Greg Sager,804-365-4690,-77.433373217998,37.755295723811
Harrisonburg City Public Schools,#0,5541b804,Andy Jackson,540-434-4801,-78.869344056798,38.44648438266
"Harrisonburg, City of",#0,5541b804,Harsit Patel,540-434-5928,-78.890706748092,38.418513765803
Hartwood Elementary,#0,5541b804,Leslie Lausten,540-752-4441,-77.539008143236,38.38368503487
Healing Harvest Forest Foundation,#0,5541b804,Jason Rutledge,540-651-6355,-80.143064379838,37.058761946129
"Health (VA), Department of",#0,5541b804,Maureen Dempsey,804-646-7473,-77.43175443529,37.537183899015
Hemlock Overlook Regional Park,#0,5541b804,Anna Birch,800-877-0954,-77.409621476723,38.770190267662
"Henrico County Div. of Recreation and Parks, Outdoor Recreation",#0,5541b804,Recreation & Parks,804 - 501-5147,-77.509571590435,37.628341919072
Henrico County Extension Service,#0,5541b804,Karen Carter,804-501-5160,-77.509570525217,37.628342291423
Henry Clay Elementary School (VaN School),#0,5541b804,Teresa Keck,804-365-8139,-77.4867274401,37.75620513076
Henry County Parks & Recreation,#0,5541b804,Andy Mabe,276-634-4640,-79.89297336248,36.742440789128
Heritage Elementary School,#0,5541b804,Sharon Anderson,434-384-5150,-79.143658813584,37.413062050488
Hidden Valley Middle School (VaN School),#0,5541b804,Ken Nicely,540-772-7570,-80.028391293156,37.254621653821
Highland Park Elementary School,#0,5541b804,Sarah Copenhaver,540-397-1020,-79.940049004146,37.283447960376
"Hill City Master Gardener Association, The",#0,5541b804,Bill Morton,434-525-7631,-79.327218883037,37.396904701665
"Historic Resources (VA), Department of",#0,5541b804,Catherine Slusser,804-367-2323,-77.47260764622,37.558316537374
Hoffler Creek Wildlife Foundation,#0,5541b804,Randi Strutton,757-483-6838,-76.400144103117,36.892888341894
Holiday Lake 4-H Educational Center,#0,5541b804,Tamara Arrington,434-248-5444,-78.649456580296,37.393925971531
Holliday Lake State Park,#0,5541b804,"Alison Weddle, Chief Ranger",434-248-6308,-78.640829477076,37.397240392127
Holman's Creek Citizen's Watershed,#0,5541b804,Rodney Bankson,(540) 459-5735,-78.501612583408,38.886588171822
Holston High School,#0,5541b804,Amy Thacker,276-739-4000,-81.794620158441,36.655217172697
Homer L. Hines Middle School,#0,5541b804,"Jacob M. Wilson, III",757-272-9003,-76.493955238258,37.073209667502
Honeywell,#0,5541b804,Evans Drake,804-541-5732,-77.277553030685,37.297682526333
Hopewell Clean City Commission,#0,5541b804,Phillip Elliott,804-541-2293,-77.283389902892,37.303973878754
"Housing & Community Development (VA), Department of",#0,5541b804,"Hollie Cammasasana, Public Relations",804-371-7006,-77.438986884262,37.5398362785
"Howard Gardner School, The",#0,5541b804,Katherine Keith,703-822-9300,-77.118890425439,38.786926552508
Hugh K. Cassell Elementary School,#0,5541b804,Mindy Garber,540-946-7635,-78.869501479073,38.130898878855
Hull Springs Farm Foundation - Longwood University,#0,5541b804,Bobbie Burton,804-472-2621,-76.665654124827,38.121521637591
Hunters Woods Elementary School for the Arts and Sciences (VaN School),#0,5541b804,Emily Cope,703-262-7474,-77.361280149085,38.932612345775
Huntington Middle School,#0,5541b804,Cleo Hollowya,757-928-6846,-76.415022728464,36.989482607967
Hurt Park Elementary School,#0,5541b804,Sarah Copenhaver,540-397-1020,-79.940048747832,37.283446873568
Independence Elementary School,#0,5541b804,Susie Funk,276-773-2832,-81.146244921777,36.62227763362
Independence High School,#0,5541b804,Susie Funk,276-773-2832,-81.146246469273,36.622281355938
Independence Middle School,#0,5541b804,Susie Funk,276-773-2832,-81.146248222091,36.622281745729
Indian River High School,#0,5541b804,Genevieve Wakefield Brosky,757-578-7000,-76.240624607947,36.797670629481
Indian Valley Elementary School (VaN School),#0,5541b804,Chris Hewitt,540-745-9420,-80.539165440719,36.916545446088
Interstate Commission on the Potomac River Basin (ICPRB),#0,5541b804,James Cummins,301-984-1908 ext. 106,-77.152756945645,39.084001247404
Isle Be Green,#0,5541b804,Rachel Chieppa,757-357-6126,-76.708796742232,36.908497970294
Ivy Creek Foundation - Ivy Creek Natural Area,#0,5541b804,Karen Joyner,434-973-7772,-78.492421368785,38.091967656391
"Izaak Walton League of America, Inc. - Gaithersburg, MD",#0,5541b804,Leah Miller,301-548-0150 ext. 219,-77.219985948765,39.120335430062
"Izaak Walton League, Virginia Chapter",#0,5541b804,"Mike Phillips, Division Director",540-636-2103,-78.115546231413,38.941699868465
J Michael Lunsford Middle School,#0,5541b804,Neil Slevin,703-722-2660,-77.527546269806,38.909101732069
James Breckinridge Middle School,#0,5541b804,Jonathan Pait,540-853-2859,-79.940049883284,37.283444094877
James City Clean Commission,#0,5541b804,Jim Hill,757-565-0971,-76.832384764319,37.303810899083
James City County Division of Parks and Recreation,#0,5541b804,Andrea Johnson,757-259-5412,-76.733829580666,37.285701740541
James City County Solid Waste/Recycling,#0,5541b804,Jim Hill,(757) 565-0971,-76.81837186213,37.325530203675
James City Service Authority,#0,5541b804,Beth Davis,757-253-6859,-76.680661689548,37.245317045177
James City Stormwater Program,#0,5541b804,Suzanne Dyba,757-259-1460,-76.733392285395,37.285610265642
James L. Camp YMCA,#0,5541b804,Sarah Strader,,-76.94488077664,36.687943001318
James Madison Middle School,#0,5541b804,Jonathan Pait,540-853-2859,-79.940052918587,37.283445761351
James River Advisory Council (JRAC),#0,5541b804,Kim Conley,804-748-1567,-77.507750463078,37.376831779482
James River Association,#0,5541b804,William Street,804-788-8811,-77.434019876799,37.536211546511
James River Fishing School,#0,5541b804,Mike Ostrander,804-938-2350,-77.520681288963,37.548911847317
James River Green Building Council,#0,5541b804,Megan Miller,804-440-0599,-77.481984217266,37.574415203475
James River High School,#0,5541b804,Charles Larocca,804-378-2420,-77.648296003856,37.551289182158
James River Outdoor Coalition (JROC),#0,5541b804,Greg Velzy,804-748-1124,-77.418914927915,37.520209889968
James River State Park,#0,5541b804,Leslie Tinder,434-933-4355,-78.847793959127,37.545495645421
Jamestown 4-H Educational Center,#0,5541b804,Marlie Smith,757-253-4931,-76.787862509313,37.230813688241
JEB Stuart Elementary School,#0,5541b804,Johna Vazquez,804-862-7090,-77.387039232493,37.202830612455
Jefferson Houston Elementary School,#0,5541b804,Dr. Tammy L. Mann,703-549-0111,-77.0472477428,38.801162831932
John Battle High School,#0,5541b804,Jeff Hawkins,276-642-5300,-82.102960163377,36.643177332884
John Gandy Elementary School,#0,5541b804,Terry Dixson,804-365-4640,-77.469018807696,37.770872322519
John Handley High School,#0,5541b804,Dr. V. Douglas Joyner,540-667-4253,-78.174352319671,39.177236434212
John Wayland Elementary,#0,5541b804,David Burchfield,540-828-6081,-78.959627774305,38.395068838053
"Joseph P. King, Jr. Middle School",#0,5541b804,Linda G. Staylor,434-298-7847,-76.923732752254,36.677203175369
Kate Collins Middle School,#0,5541b804,Tyrell D. McElroy,540-241-6011,-78.895283757122,38.081590783928
Kauffman Foundation,#0,5541b804,Bonnie Kaufmann,540) 743-2664,-78.459753023092,38.662205507101
Kecoughtan High School Ecology Club,#0,5541b804,Sally Lewis,757-850-5000,-76.317646663951,37.05487033878
Keep Bristol Beautiful,#0,5541b804,Kathy Lowdermilk,423-989-4850,-82.189128816003,36.594608702533
Keep Buchanan County Beautiful Litter Committee,#0,5541b804,Danny Davis,276-498-4403,-82.114512921799,36.894072208159
Keep Henrico Beautiful,#0,5541b804,Hallie Boisseau,804-501-7277,-77.515052656148,37.628998683937
Keep Loudoun Beautiful,#0,5541b804,Tony Hayes,703-777-0187,-77.56812849927,39.119546114447
"Keep Nelson Beautiful, Nelson County Department of Waste Management",#0,5541b804,Susan McSwain,434-263-7098,-78.869687875065,37.760410390692
Keep Norfolk Beautiful,#0,5541b804,John Deuel,757-441-1347,-76.281994477784,36.878766123575
Keep Southwest Virginia Beautiful,#0,5541b804,Bobby Justus,276-889-8145,-82.068531962542,36.906231708586
Keep Suffolk Beautiful,#0,5541b804,Hattie Lester,757-514-4012,-76.603475250338,36.696498037391
Keep Virginia Beautiful,#0,5541b804,Mike Baum,(804) 665-2908,-77.580568844878,37.650388912106
Keep Wise County Beautiful,#0,5541b804,Greg Cross,276-328-1000,-82.579672746625,36.977425165119
Kemps Landing Magnet School,#0,5541b804,Charles Foster,757-648-4650,-76.13850392107,36.857489159001
Kenmore Middle School,#0,5541b804,Liz Castillo,703-228-6800,-77.131449497204,38.864071828159
Kersey Creek Elementary School,#0,5541b804,Dr. Deborah Waters,804-723-3440,-77.389916674196,37.688391020402
"Kids In the Valley, Adventuring!",#0,5541b804,Chip and Ashley Donahue,540-580-3015,-80.02112625702,37.302641649562
"Kilmarnock, Town of",#0,5541b804,Marshall Sebra,804-435-1552,-76.386007354782,37.723510729925
King and Queen Elementary School,#0,5541b804,Linda G. Staylor,434-298-7847,-76.877211009957,37.67045913281
King William County Planning Department,#0,5541b804,Ryan Fletcher,804-769-4978,-77.012255306149,37.690126691681
King William/West Point Litter Prevention Program,#0,5541b804,Mary Walton,804-769-4917,-77.012255471208,37.690125044127
Kush-Hara Farm and Goat Dairy- School of Sustainable Living,#0,5541b804,Tom and Liane Young,540-854-7114,-77.866669368753,38.298277599774
Laburnum Elementary School (Henrico),#0,5541b804,Mrs. Lowery,804-228-2720,-77.428464093122,37.596046478357
Lafayette-Winona Middle School,#0,5541b804,LaDonna Gardner,757-441-2400 ext. 235,-76.290580361271,36.853644590824
Lake Anna Civic Association,#0,5541b804,Kenneth Remmers,703-968-2430,-77.908606062809,38.010697210507
Lake Taylor Middle School,#0,5541b804,LaDonna Gardner,757-441-2400 ext. 235,-76.290575990662,36.853641376258
Lancaster Middle School,#0,5541b804,Janet Lundin,804-435-1681,-76.38293605613,37.714650313382
Lancaster Primary School,#0,5541b804,Dr. Holly Wargo,804-435-3196,-76.415107191697,37.752309182544
"Lands and Waters, Inc.",#0,5541b804,Jeanette Stewart,571-294-3646,-77.222427582847,38.870035856325
Larkspur Middle School(VaN School),#0,5541b804,Matthew Delaney,757-648-4800,-76.14084913842,36.814981665244
Lavender Fields Farm,#0,5541b804,Stan/Nicole Schermerhorn,804-262-7167,-77.476912621559,37.680803590845
Lawson-Marriott Elementary School,#0,5541b804,Linda G. Staylor,434-298-7847,-76.877211505767,37.670457156704
Leesylvania State Park,#0,5541b804,,(703) 730-8205,-77.26135450065,38.593010176059
Leonard A. Gerau Center for Applied Technology and Career Exploration,#0,5541b804,Kevin Bezy,540-483-5446,-79.895291189049,37.014475957408
Lewis Ginter Botanical Garden,#0,5541b804,Randee Humphrey,804-262-9887x 326,-77.470864632884,37.620167900125
Library of Virginia,#0,5541b804,Mark Howell,804-692-3500,-77.433880812241,37.541082487437
Lincoln Terrace Elementary School,#0,5541b804,Sarah Copenhaver,540-397-1020,-79.940050056363,37.283446313459
Linkhorne Elementary School,#0,5541b804,Lindsay Johnson,434-384-6611,-79.14365807304,37.413063277211
Linkhorne Middle School,#0,5541b804,Vicki B. Hubbard,434-384-5150,-79.143658473438,37.413065705328
Living Classrooms,#0,5541b804,Jessica Richards,410-685-0295,-76.59657948335,39.282312795599
Lorien Wood School,#0,5541b804,Ms. Amy Imbody,703-854-1640,-77.227489911798,38.901775127492
Loudoun County Citizens for a Sustainable Society (LCCSS),#0,5541b804,Gina Faber,540-338-2574,-77.563598468404,39.11566518871
Loudoun Heritage Farm Museum,#0,5541b804,Katie Eichler,571-258-3800,-77.403589458311,39.015910996879
Loudoun Valley High School,#0,5541b804,Liam McGranaghan,(540) 751-2400,-77.700337985905,39.140966134088
Loudoun Watershed Watch,#0,5541b804,David Ward,,-77.662446336314,39.243212793853
Louisa County Clean Community Commission,#0,5541b804,Cindy Moore,540-967-3462,-78.003292018639,38.023679702765
Louisa Middle School (VaN School),#0,5541b804,,540-894-5457,-77.92326641091,38.021213913453
Lucille Murray Brown Middle School,#0,5541b804,Helena Easter,804-780-7710,-77.514188779674,37.521956565551
Lucy Addison Middle School,#0,5541b804,Jonathan Pait,540-853-2859,-79.940051514474,37.283444924058
Lunenburg Middle School,#0,5541b804,MeriPage Spencer,434-676-2467,-78.130890248826,36.962827480136
Luray Elementary School,#0,5541b804,Chadwick Hensley,540-743-4078,-78.455393985886,38.659419541243
Luray High School,#0,5541b804,Delynda Hendricks,540-743-3800,-78.485313532253,38.654935852027
Lynchburg Bird Club,#0,5541b804,Thelma Dalmas,434-821-1136,-79.216888712185,37.202938834164
Lynchburg Community Market,#0,5541b804,Jennifer Kennedy,434-455-4485,-79.14019200408,37.411588675044
Lynchburg Grows,#0,5541b804,,434-846-5665,-79.16652735016,37.390853247636
Lynchburg Parks and Recreation,#0,5541b804,Laura Rogers,434-455-5858,-79.164844149652,37.402591326039
"Lynchburg Waste Management , City of",#0,5541b804,David Owen,434-455-6335,-79.159208588034,37.409011245138
Lynnhaven River Now,#0,5541b804,Karen Forget,757-962-5398,-76.140412084566,36.895210113688
MacCallum More Museum and Gardens,#0,5541b804,Brenda Arriaga,434-372-0502,-78.456175883758,36.801853256289
Madison County 4-H,#0,5541b804,Kelly Mallory,540-948-6881,-78.258182671799,38.379658262678
"Manassas Park, City of",#0,5541b804,Laura Coughanour,703-393-0881,-77.47412198655,38.781869546916
"Manassas, City of - Public Works Department",#0,5541b804,Susan (Sue) E. Lhotka,703-257-8252,-77.47027340131,38.750912552274
Manchester High School (VaN School),#0,5541b804,Pete Koste,804-739-6275,-77.623255312179,37.406914420667
Manchester Middle School (VaN School),#0,5541b804,Sarah Fraher,804-674-1385,-77.529368732201,37.467151622213
"Marine and Environmental Science Department, Hampton University",#0,5541b804,George Burbanck,757-727-5752,-76.342930800111,37.025820608167
Marine Resources Commission,#0,5541b804,Bill Pruitt,757-247-2265,-76.43075422701,36.97869980908
"Marine Science Consortium, The",#0,5541b804,Amber Parker,757-824-5636,-75.48426973201,37.934195103056
Mariners Museum,#0,5541b804,Ashley Ruhl,757-591-7745,-76.490018630974,37.055222882737
Marion Primary School (VaN School),#0,5541b804,Sally Moorer,276-873-3021,-81.501571836195,36.840268863816
Marstella Middle School (VaN School),#0,5541b804,Roberta Kneeter,703-368-8134,-77.485099566078,38.764814815086
Martin Luther King Middle School,#0,5541b804,Sandra Hayward-Jones,804-780-8011,-77.419999641512,37.542775816094
Martinsville Middle School,#0,5541b804,Chandra Prillaman,276-403-5886,-79.869269420446,36.687232232412
Mary Munford Elementary,#0,5541b804,Paula Katz,804-780-6267,-77.499576776729,37.563758662337
Mason Neck State Park,#0,5541b804,David Stapleton,703-339-2384,-77.199003618127,38.643913377701
Mason's Cove Elementary School (VaN School),#0,5541b804,Phyllis Satterfield,540-687-6530,-80.06088493789,37.365725033834
Massaponax High School,#0,5541b804,Fernanda Kain,540-710-0419,-77.509430752578,38.181124840822
MathScience Innovation Center,#0,5541b804,Robin Newton,804-343-6525,-77.399206466214,37.556400904855
Mattaponi Canoe & Kayak,#0,5541b804,Garrie Grouse,804-769-1449,-77.171518659119,37.802461302123
Mattaponi Heritage Foundation,#0,5541b804,Carl Custalow,804-769-4508,-76.91400349297,37.662371829396
Maury River Middle School,#0,5541b804,Paige Crawford,540-577-9500,-79.474818187399,37.846926878962
Maymont Nature Center/Maymont Foundation,#0,5541b804,Kate Quarles,804-358-7166 x 325,-77.477381415382,37.535823758093
McGaheysville Elementary School,#0,5541b804,Rebecca Roadcap,540-289-3004,-78.735505714393,38.373459364856
McHarg Elementary School,#0,5541b804,Eric L. Bucey,540-633-6270,-80.571263669002,37.121682146215
Meadows of Dan Elementary School (VaN School),#0,5541b804,Jeannie King,540-952-2424,-80.400830111686,36.736707807419
Meadowview Biological Research Station,#0,5541b804,"Mr. Phil Sheridan, Director",804-633-4336,-77.388022757074,38.146148073185
Meadowview Elementary School,#0,5541b804,Beth Litz,276-739-3900,-81.857427347805,36.751222283919
Mecklenburg County Science Program K - 12,#0,5541b804,Karla Gravitt,434-738-6111,-78.411864386307,36.663840359929
Mid-Atlantic Highlands Action Program/VA Liaison & Cooper Conservation Advisorys,#0,5541b804,Faye C. Cooper,540-414-5495,-79.064034167104,38.154793502248
Mid-Atlantic Solid Waste Consultants (MSW Consultants),#0,5541b804,Kristian Ferguson,703-942-6307,-77.428314041081,38.317990392397
Middle James Roundtable,#0,5541b804,Taylor Ward,(804) 527-4498,-77.568048841174,37.670933680286
Middlesex County 4-H,#0,5541b804,David Moore,804-758-4120,-76.594532804479,37.606773137938
Middlesex High School,#0,5541b804,John Porter,(804) 758-2132,-76.600975637028,37.608196638095
"Mill Mountain Discovery Center, Roanoke Rec and Parks",#0,5541b804,Paul Chapman,540-853-1339,-79.944864404648,37.270807975778
Mill Mountain Zoo,#0,5541b804,Bambi Godkin,540-343-3241,-79.934279788276,37.249848775066
Miller School,#0,5541b804,Patrick L. France,434-823-4805,-78.701266928876,38.006198353658
Mills E. Godwin Middle School,#0,5541b804,Jehovanni Mitchell,704-670-6166,-77.436708591256,38.635585398082
"Mines Minerals & Energy (VA), Department of",#0,5541b804,Robin Jones,804-692-3224,-77.433420305373,37.53762762978
Moneta Elementary School,#0,5541b804,Barbara Rezzonico,540-586-1045,-79.524721377589,37.33161981698
Montgomery County Public Schools - Science Dept.,#0,5541b804,Dr. Patricia Gaudreau,540-381-6536,-80.40419530411,37.13210466251
Montgomery Regional Solid Waste Authority Education Coordinator,#0,5541b804,David Breeden,540-382-5700 ext. 4083,-80.392697437844,37.130903330002
Monticello High School (VaN School),#0,5541b804,Katrina Dudley,434-244-3100,-78.490963653214,37.999510569871
"Montpelier Foundation, The",#0,5541b804,"Sandra Mudrinich, Horticulturist",540-672-2728,-78.185865388022,38.223382784655
Moody Middle School,#0,5541b804,Beth Lewis,804-261-5015,-77.480275006245,37.625899096669
Morningside Elementary School,#0,5541b804,Johnathan Pait,540-853-2859,-79.940049781279,37.283445018338
Mount Vernon High School,#0,5541b804,Kate Salerno,571-423-4263,-77.223621328325,38.868195599177
"Mountain Lake Conservancy, The",#0,5541b804,Jessica Coker,540-626-7121 x444,-80.536103571831,37.355592358257
Mountain View Elementary School (VaN School),#0,5541b804,Ms. Rhodes,540-438-1965,-78.947437995449,38.457013585606
Mountain View Farm,#0,5541b804,Fred & Christie Huger,540-460-4161,-79.285621736197,37.899163191654
Mt. Olympus Farm,#0,5541b804,Mary West,804-387-1450,-77.482771621431,37.942290035185
Mud Pie Planet,#0,5541b804,Elizabeth Burke,703-839-0977,-77.273490848951,38.920079605011
Murray's Fly Shop,#0,5541b804,Harry Murray,540-984-4212,-78.565661440785,38.820791959461
Museum District Association,#0,5541b804,Robert Traub,804-257-9622,-77.483937495883,37.554471834875
Museum of Natural History - Eastern Mennonite University,#0,5541b804,Maureen Gallon,540-432-4400,-78.877624983482,38.470054066536
Nandua Middle School,#0,5541b804,Suzy Corson,(757) 787-7037,-75.724752586964,37.681508673132
Nansemond River Preservation Alliance,#0,5541b804,Elizabeth Taraski,757-745-7447,-76.495136678887,36.910133442257
Nansemond-Suffolk Academy,#0,5541b804,"Colley W. Bell, III",757-539-8789,-76.62198700476,36.774038325996
National Energy Education Development (NEED),#0,5541b804,Mary Sprull,703-257-1117,-77.449190821274,38.761628271935
National Historic Site - Maggie L. Walker,#0,5541b804,Dave Ruth,804-771-2017,-77.412139190914,37.527459538692
National Park Service - Blue Ridge Parkway,#0,5541b804,Paulette Mullinax,540-586-4496,-79.147024718225,37.869043892022
National Park Service - Richmond National Battlefield Park,#0,5541b804,David Ruth,804-226-1981,-77.412137534084,37.527462366744
National Wildlife Federation,#0,5541b804,Laura Hickey,703-438-6289,-77.330733425789,38.951610883218
Natural Awakenings Magazine,#0,5541b804,Tracy Garland,5404673257,-80.080530177189,37.283629499968
Natural Bridge Appalachian Trail Club,#0,5541b804,Gary Nero,434-384-0013,-79.215201650687,37.44923589481
Natural Bridge Elementary School (VaN School),#0,5541b804,Melanie Falls,540-291-2292,-79.498758210075,37.620156726741
Natural Tunnel State Park/Cove Ridge Education Center,#0,5541b804,,276-940-2674,-82.795994769942,36.718987724607
"Nature Camp, Inc.",#0,5541b804,Philip Coulling,540-377-2491,-79.221298255703,37.877524263786
"Nature Conservancy, The (VA Field Office)",#0,5541b804,Judy Dunscomb,434-295-6106,-78.483234282181,38.071849769685
Nature Investigations,#0,5541b804,Laura T. Beltran,706-220-0980,-79.831202093693,37.385177270669
"Nature Zone of Lynchburg Parks & Recreation, The",#0,5541b804,Kathie Driscoll,434-455-5828,-79.156971662481,37.40631661017
Nelson Elementary School,#0,5541b804,Jessica Winkley,757-886-7783,-76.56327169457,37.127745718406
New Bridge Academy,#0,5541b804,Rev. J. D. Sluss,804-737-7833,-77.237158244,37.506022191678
New Community Project,#0,5541b804,Tom Benevento,540-433-2363,-78.862881161276,38.457291288002
New Horizons Reg. Education Center (VaN School),#0,5541b804,David Creamer,757-766-1100,-76.411432694736,37.063974631534
New Kent Clean County Committee,#0,5541b804,Amy Walker,804-966-8580,-76.977560791518,37.517962337474
New Kent High School,#0,5541b804,Karen Schureman,804-966-9671,-76.981217896645,37.508379889762
"New Market, Town of",#0,5541b804,Evan Vass,540-740-3432,-78.671745185274,38.646051694812
New Quarter Park,#0,5541b804,Molly Nealer,757-890-5840,-76.645029666949,37.29339271788
New River Highlands RC&D,#0,5541b804,Gary Boring,276-228-2879 ,-81.055590826239,36.952476809571
New River Land Trust,#0,5541b804,John Eustis,540-951-1704,-80.40729818784,37.222701026866
New River Resource Authority,#0,5541b804,Sherry Johnson,(540) 674-1677,-80.671079864278,37.191831227193
New Vistas School,#0,5541b804,"Diane Roy, Marie Arrington",434-846-0301,-79.172401730904,37.398800600236
Newport News Green Foundation,#0,5541b804,Amanda Wroten,757-597-2842,-76.472058417905,37.086295437889
"Newport News Solid Waste Division, City of",#0,5541b804,Mayi Henriquez,757-269-2852,-76.502957276452,37.109180918967
Newsome Park Elementary School,#0,5541b804,Victor Martinez,757-928-6810,-76.422984201576,36.996022195825
Newton Marasco Foundation,#0,5541b804,Jenny Schmidt,703-748-7575,-77.213159935566,38.920370362121
Newton-Lee Elementary School,#0,5541b804,Gregory Mihalik,(571) 252-1535,-77.503252762067,39.057184204572
Newtown Elementary School,#0,5541b804,Wendy Bennett Singleton,757-648-4080,-76.163138484033,36.863042800283
NOAA -Chesapeake Bay Office/VA Institute of Marine Science (VIMS),#0,5541b804,Carol Hopper-Brill,804-684-7735,-76.501687781447,37.248114621221
Norfolk  Public Works- Stormwater Division,#0,5541b804,Fleta Jackson,757-823-4007,-76.253542012457,36.860854508553
Norfolk Botanical Garden,#0,5541b804,Donna Crabill,757-441-5830,-76.208567571155,36.906805744246
Norfolk Public Schools - Science Office,#0,5541b804,Dr. Veronica E. Haynes,757-628-3878,-76.284242585708,36.847386391611
North Branch School (VaN School),#0,5541b804,Bonnie Holliday,540-456-8450,-78.822283742424,37.998154219173
North Cross School,#0,5541b804,Sandy Patterson,540-989-6641,-79.986945587485,37.239064935466
Northampton County High School,#0,5541b804,Karen Leffel,757-678-5151,-75.946090992798,37.352882421271
Northampton High School,#0,5541b804,Sally Richardson,757-678-5151,-75.946091902128,37.352879178825
"Northern Neck Land Conservancy, Inc",#0,5541b804,Jamie M. Tucker,804-462-0979,-76.465081496723,37.77013045595
"Northern Neck Planning Commission, The",#0,5541b804,Jerry Davis,(804) 333-1900,-76.755586555947,37.964446431556
Northern Neck Residency VDOT/Environmental Section,#0,5541b804,Theresa Tabulenas,804-333-3696,-76.662111430181,37.959196355253
Northern Shenandoah Regional Commission,#0,5541b804,Gail Crigler,540-636-8800,-78.203738504193,38.930604758584
Northern Virginia 4-H Educational and Conference Center,#0,5541b804,"Nora Belle Comer, Director",540-635-7171,-78.194442195086,38.918170042748
"Northern Virginia Conservation Trust, The (NVCT)",#0,5541b804,Nancy Hyde,703.354.5093 ext. 23,-77.210408107412,38.838141394594
Northern Virginia Regional Commission (NVRC),#0,5541b804,Aimee Vosper,703-642-0700,-77.23419353866,38.866453589337
Northumberland Association for Progressive Stewardship (NAPS),#0,5541b804,Lynton Land,804-453-6605,-76.345479992289,37.882894058255
Nottoway High School,#0,5541b804,Michelle Wallace,434-645-9596,-78.101408786223,37.155975188957
Nottoway Intermediate School,#0,5541b804,Daisy Hicks,434-292-5353,-78.056428137225,37.119342694237
Oakton High School Ecology Club,#0,5541b804,Don Clark,703-319-2700,-77.282224622856,38.877423745814
"Ocean Encounters, Inc.",#0,5541b804,William Winram,no phone,-77.519753061728,37.656386087119
Ocean View Maritime Elementary School,#0,5541b804,Jennifer Boyer,757-531-3105,-76.260438870108,36.956263183755
Old Church Creamery,#0,5541b804,Catherine Long,804-513-3748,-77.192176531334,37.697806463366
"Old Dominion Resource Conservation & Development Council, Inc.",#0,5541b804,Joan Crenshaw,434-547-0540,-78.639671908439,37.056095863585
Oliver Wendell Holmes Middle School,#0,5541b804,Dr. Mark Emery,571-423-1270,-77.224524616141,38.86810212585
Orange County High School,#0,5541b804,"Doug Duncan, Principal",540-661-4300,-78.097509994309,38.245757125561
Orange County Litter Control Program,#0,5541b804,Ron Rose,540-672-9700,-78.112990161158,38.245556749982
Orange County Public Schools,#0,5541b804,Carol Hunter and Jessica L. Roy,540-661-4420 ext. 2086,-78.117371912828,38.240716461998
Oyster Reef Keepers of Virginia,#0,5541b804,Laurie Sorabella,757-460-1200,-76.107321040513,36.909991911333
P.B. Smith Elementary School,#0,5541b804,Barbara Dennee,540-442-7670,-77.760153792614,38.73680226889
Page County - Environmental Services,#0,5541b804,Linda Minke,540-743-3854,-78.58251857523,38.619609711693
Page County Middle School,#0,5541b804,Bobbi Wells,540-843-2808,-78.474550889024,38.664309825594
Park View Middle School,#0,5541b804,Linda G. Staylor,434-298-7847,-78.411860695598,36.663838623834
Parkside Middle School,#0,5541b804,Mrs. Mary Jane Boynton,703-361-3106,-77.436712615124,38.635585308132
Parry McCluer High School (Buena Vista School System),#0,5541b804,"Anna Graham, Principal",540-261-2127,-79.359842324316,37.718377584825
Patrick Henry Community College - Workforce Development and Continuing Education,#0,5541b804,Rhonda Hodges,(276) 656-0256,-79.870533266794,36.739404654303
Patrick Henry High School,#0,5541b804,Beverly Eason,276-739-3700,-81.756825245432,36.775746433552
Patrick Henry School of Science & Arts,#0,5541b804,Sabrina Beamon,804-888-7061,-77.46985984908,37.516128267788
Peabody Middle School,#0,5541b804,Johna Vazquez,804-862-7090,-77.387039506742,37.20283231018
Pearson's Corner Elementary School (VaN School),#0,5541b804,Linda Painter,804-723-3660,-77.389602865422,37.679265473602
Peasley Middle School (VaN School),#0,5541b804,Bryan Hartley,804-693-1499,-76.606302079649,37.413333413598
Perennial Roots,#0,5541b804,Stewart Lundy,757-709-8761,-75.668778879598,37.712725918693
Perrymont Elementary School,#0,5541b804,Karen Nelson,434-582-1100,-79.189737870636,37.388746947485
Petersburg High School,#0,5541b804,Johna Vazquez,804-862-7090,-77.387037702251,37.202830849191
Piedmont Environmental Council,#0,5541b804,Gem Bingol,703-431-6941,-77.793099742334,38.714595276417
Pittsylvania County Beautification & Litter Control,#0,5541b804,Ginger B. Jones,434-432-7794,-79.398107789571,36.826873789762
Pittsylvania County Schools,#0,5541b804,Elizabeth Craig,434-432-2761,-79.396186359819,36.82696186055
Plaza Middle School,#0,5541b804,Bob Carroll,757-648-4900,-76.077173171236,36.830978100689
Pocahontas Group Virginia Native Plant society,#0,5541b804,Ernest Wilson,804-278-6357,-77.465193029121,37.550032840693
Pocahontas State Park,#0,5541b804,Kristi Orcutt,(804) 796-4255,-77.580911947923,37.384550394787
Pollinator Plates,#0,5541b804,Samantha Gallagher,2402983570,-77.116839040044,38.815672705181
Poquoson Historical and Cultural Museum Foundation,#0,5541b804,Paul Whitlow,757-868-6899,-76.367093215713,37.128150658912
Portsmouth Catholic Regional School,#0,5541b804,Jennifer Grimm,(757) 488-6744,-76.354232064268,36.81914718577
Portsmouth Public Schools - Science Education Office,#0,5541b804,Laura Nelson,757-393-8535,-79.174064485454,37.382051243815
Potomac Conservancy,#0,5541b804,Anna Wadhams,301-608-1188 x.205,-77.027986192325,38.996545801856
Potomac Middle School,#0,5541b804,Mrs. Alfie L. Turner,703-221-4996,-77.436708969623,38.635583761237
Potowmack Elementary School,#0,5541b804,Michele Rzewski Copeland,(571) 434-3270,-77.395366019405,39.040058300609
Powell River Project Research and Education Center,#0,5541b804,Carl Zipper,(540) 231-9782,-80.424479507494,37.233210058639
Powhatan County Anti-Litter Council,#0,5541b804,Cathy Howland,(804) 598-5640,-77.918863610052,37.54117752523
Powhatan High School (VaN School),#0,5541b804,Sandy Lynch,(804) 598-5710,-77.800122391393,37.520655429604
Prince William Clean Community Council,#0,5541b804,Brenda Evans,571-285-3772,-77.340066585703,38.673854584325
Prince William Conservation Alliance,#0,5541b804,"Kim Hosen, Executive Director",703-499-4954,-77.53481384257,38.623050061939
Prince William County Schools,#0,5541b804,Steven L. Watts,703.791.7200,-77.436708686624,38.635586092463
Prince William County Service Authority (PWCSA),#0,5541b804,Keenan Howell,(703) 335-8914,-77.349149764705,38.680976525673
Prince William Forest Park,#0,5541b804,Dave Ballam,703-221-4706,-77.368682961154,38.559482905331
Project Learning Tree (PLT),#0,5541b804,"Lisa Deaton, Statewide Coordinator",804-328-3031,-77.302639676323,37.521914859593
Project UNDERGROUND/DCR - Virginia Karst Program,#0,5541b804,"Carol Zokaites,Karst Education Coordinator",540-394-2553,-80.41399523032,37.126603182429
Project WET,#0,5541b804,Page Hutchinson,804-698-4488,-77.438295290359,37.539250327676
Project WILD,#0,5541b804,"Suzie Gilley, Statewide Coordinator",804-367-0188,-77.481657564706,37.572666276113
Providence Middle School,#0,5541b804,Susan Dandridge,804-594-1704,-77.501763569883,37.379875285696
Pulaski Middle School,#0,5541b804,Eric L. Bucey,540-980-4111,-80.77977809312,37.048620667824
R. E. Lee High School,#0,5541b804,Lori Witt,(540) 332-3926,-79.054577143464,38.165959323492
Rachel Carson Middle School (VaN School),#0,5541b804,Patty Walsh,703-925-3600,-77.419906138949,38.927195250683
"Radford University, Department of Geology",#0,5541b804,Parvinder Sethi,540-831-5619,-80.55254591192,37.138378029827
"Randolph-Macon College, Environmental Studies/Biology Program",#0,5541b804,Charles Gowan,804-752-7293,-77.478288750194,37.76038689221
Rappahannock League for Environmental Protection,#0,5541b804,Rick Kohler,540-675-7537,-78.159438320159,38.712274264473
Rappahannock Regional Solid Waste Management Board,#0,5541b804,Diane L. Jones,540-658-8680,-77.415574553092,38.382613401718
Rappahannock Regional Solid Waste Management Board,#0,5541b804,Julie May,540-658-4579,-77.415576703598,38.382613516072
Rappahannock River Basin Commission,#0,5541b804,Eldon James,(540) 907-2008,-77.457385316786,38.297889774025
Rappahannock-Rapidan Regional Commission,#0,5541b804,Jenny Biche,540-829-7450,-78.018715148098,38.453910774562
Region 2000,#0,5541b804,Diane Dodd,(434)  455-6085,-79.142167167932,37.415280684446
Rennaissance Academy,#0,5541b804,Sarah Nedved,(757) 648-6000,-76.15936492564,36.842142153359
Resource Initiative for Safe Kids,#0,5541b804,Anthony Jones,,-77.859594939204,37.119545469586
Rhea Valley Elementary School,#0,5541b804,Debbie Anderson,276-739-4200,-81.816795084909,36.68152985922
Richlands Middle School,#0,5541b804,Cindy Shrader,276-963-5370,-81.777988774545,37.095306944283
Richmond Audubon Society,#0,5541b804,Pete Walker,(804) 257-0813,-77.537969986738,37.542489026622
"Richmond Clean City Commission, City of",#0,5541b804,Darlene Mallory,804-646-8325,-77.454716046639,37.500432377123
Richmond Montessouri School,#0,5541b804,Katie Wood,804-741-0040,-77.569611578844,37.585329108711
Richmond Regional Planning District Commission (RRPDC),#0,5541b804,Jacqueline Stewart,804-323-2033,-77.566656868413,37.539474275264
Richmond Tree Stewards,#0,5541b804,Norm Brown,804-646-6785,-77.463710402504,37.549424348325
"Richmond, Dept. of Public Utilities, Division of Stormwater Utility, City of",#0,5541b804,Gay Stokes,804-646-0177,-77.432976200532,37.540970913872
Ridefinders,#0,5541b804,Call or Go to Website,804-643-RIDE,-77.435078215853,37.537114340253
Rippon Middle School (VaN School),#0,5541b804,Nancy Johnson,703-491-2171,-77.267602370704,38.622484286308
Rivanna Conservation Society,#0,5541b804,Roberta Savage,(434) 977-4837,-78.478544404204,38.029469039889
Rivanna River Basin Commission,#0,5541b804,Leslie Middleton,434-971-7722,-78.490914628202,38.031927548257
Rivanna Solid Waste Authority,#0,5541b804,Mark Brownie,434-977-2976,-78.463346727276,38.020706573594
Rivanna Trails Foundation,#0,5541b804,Diana Foster,434-923-9022,-78.484495058436,38.107261082325
RIVER & TRAIL OUTFITTERS,#0,5541b804,JOHN GONANO,301.834.9950,-77.703647326481,39.33061486254
RiverTrends  Program - Alliance for the Chesapeake Bay,#0,5541b804,Anna Mathis,804-775-0951,-77.43916887746,37.539944419191
Roanoke City - Solid Waste Division,#0,5541b804,Frank (Skip) Decker,540-853-6848,-79.937686582397,37.28784818452
Roanoke Environmental Management Division,#0,5541b804,Christopher Blakeman,(540) 853-2425,-79.944863015219,37.270807517223
Roanoke Valley Cool Cities Coalition,#0,5541b804,Mark McClain,540-387-0930,-80.069774373289,37.277913767113
Roanoke Valley Resource Authority,#0,5541b804,Deborah Charles,540-857-5050,-79.923283278925,37.27956872454
Robert S. Payne Elementary School,#0,5541b804,Krisann E. Taylor,434-522-5762,-79.143657740065,37.413065930841
Rockbridge Area Conservation Council (RACC),#0,5541b804,Barbara Walsh,540-463-2330,-79.443356664326,37.784167625826
Rockbridge County Public Schools,#0,5541b804,Martha Dudley,540-570-4399,-79.474817111251,37.846924882349
Rockbridge Recycling,#0,5541b804,Stephen Lucas,540-463-2437,-79.443787552766,37.783013410758
Rockfish Valley Foundation,#0,5541b804,peter a agelasto III,434 361 0271,-78.899083883602,37.885219495378
Rockingham County Public Schools,#0,5541b804,Nancy Lantz,540-564-3207,-78.853781395778,38.466861591744
Rockingham County Public Works,#0,5541b804,Linda Zirkle,540-564-3008,-78.866291289674,38.454049811209
Rockwood Nature Center,#0,5541b804,Bob Smet,804-745-8360,-77.582732346576,37.446105345742
Rodney Thompson Middle School,#0,5541b804,Ashton Dye,540-658-6420,-77.459116613216,38.451087040488
"Rosewall Foundation, The",#0,5541b804,Visitor Center,804-693-2585,-76.578628149194,37.331363458223
Round Hill Elementary School,#0,5541b804,Sarah Copenhaver,540-397-1020,-79.940052436423,37.283446654743
Ruby F. Carver Elementary School,#0,5541b804,Joanne Gutkin,804-750-2640,-77.627694941112,37.606765806944
Russell County Litter Control and Recycling Office,#0,5541b804,Bobby Justus,276-889-8147,-82.068530520151,36.906229418657
Rust Nature Sanctuary,#0,5541b804,Sarah Posid,703-669-0000,-77.591327964098,39.119676039008
Rustburg Middle School,#0,5541b804,Shaundra Saunders,434-332-8253,-79.103536028884,37.273450433037
SAIC/NASA Langley Research Center,#0,5541b804,Katherine Lorentz Bethea,757-864-4052,-76.389977910606,37.09692936674
Saltville Elementary School (VaN School),#0,5541b804,Brenda Boone,540-496-4751,-81.754149116765,36.888045433687
Sandusky Middle School,#0,5541b804,Katty Sievers,434-477-5966,-79.143659159419,37.413064436252
Sandy Bottom Nature Park,#0,5541b804,,757-825-4657,-76.42725818923,37.063234522774
Save Lucy Campaign. the,#0,5541b804,Leslie Sturges,7039733157,-77.257425474381,38.82579400713
"Save Our Streams, Virginia Chapter",#0,5541b804,Stacey Brown,804-615-5036,-77.521811846787,37.573557897017
Scenic Virginia,#0,5541b804,Leighton Powell,804-643-8439,-77.444186253892,37.542945222494
Schoolfield Magnet Academy (VaN School),#0,5541b804,Cynthia Johnson,804-799-6455,-79.437941703214,36.566173080947
Schooner Virginia,#0,5541b804,Will King,757-627-7400,-76.288304626474,36.84584454576
"Science and Family Life, Office of (Prince William County Schools",#0,5541b804,"Mr. Jason Calhoun, Supervisor of Science",703.791.7240,-77.436709749949,38.6355831737
Science Matters,#0,5541b804,"Debbie Mickle, Project Manager",804-560-8221,-77.601542489091,37.513494193746
Science Museum of Virginia,#0,5541b804,Mr. James R. Rollings,(804) 864-1400,-77.465971511693,37.561651174237
Science Museum of Western Virginia,#0,5541b804,Jim Rollings,540-342-5710,-79.939324179998,37.271781305331
Sedgefield Elementary School,#0,5541b804,"Jacob M. Wilson, III",757-272-9003,-76.493954305216,37.073214162578
Seven Hills School,#0,5541b804,Chip Hardey,804-329-6300,-77.453135766796,37.56525025072
Shawsville Middle School,#0,5541b804,Sherri Bolick,540-904-7401,-79.924100674128,37.257656383609
Shelburne MIddle School,#0,5541b804,Tyrell D. McElroy,540-332-3930,-79.097330712951,38.158282608398
Shenandoah County Water Resources Committee,#0,5541b804,Joyce Fadley,540-459-6194,-78.500040426846,38.888385805172
Shenandoah Forum,#0,5541b804,Rosemary Wallenger,540.984.7003,-78.69621196243,38.746352415218
Shenandoah National Park,#0,5541b804,Tim Taglauer,540-999-3488,-78.368149353248,38.65927700364
Shenandoah National Park Trust,#0,5541b804,Susan Sherman,434-293-2728,-78.478335852206,38.03038082961
Shenandoah River State Park,#0,5541b804,,540-622-6840,-78.303697337478,38.849229367835
Shenandoah Valley Air Quality Initiative (SHENAIR),#0,5541b804,Tiffany Newbold,540-568-8988,-78.862860526271,38.434693038726
Shenandoah Valley Battlefields Foundation,#0,5541b804,Patrick Chase Milner,540-740-4545 ext. 203,-78.683610920124,38.649108206121
Shenandoah Valley Bicycle Coalition,#0,5541b804,Kyle Lawrence,5712778121,-78.869341382381,38.448835387416
Shoemaker Elementary School,#0,5541b804,Diane Kegley and Emily Wood,276-386-7002,-82.576163192482,36.640575391684
Short Pump Elementary School,#0,5541b804,Judy Fitzpatrick,(804) 360-0812,-77.611897134168,37.649317810236
"Sierra Club, Virginia Chapter",#0,5541b804,Glen Besa,804-225-9113,-77.438937728849,37.540206687458
Sinai Elementary School,#0,5541b804,Linda G. Staylor,434-298-7847,-78.922477816324,36.766919907265
Sky Meadows State Park,#0,5541b804,Tim Skinner,540-592-3325,-77.956876779789,38.985135554854
Skyline Middle School,#0,5541b804,Brent Holsinger,540-246-9210,-78.873234099472,38.435430220334
"Smithfield Foods, Inc.",#0,5541b804,Dennis Tracey,(757) 365-3000,-76.630165860065,36.984838369403
Smithland Elementary School,#0,5541b804,Brent Holsinger,540-246-9210,-78.873232813923,38.435431238332
Smithsonian's National Zoo Conservation & Research Center,#0,5541b804,Laura Linn,540-635-6540,-78.170631969406,38.888964841593
"Social Services- Energy Consultant, Department of",#0,5541b804,Brenda Macklin,804-726-7372,-77.434773507906,37.541770488576
Soil and Water Conservation District  - Northern Neck,#0,5541b804,Faye Andrashko,804 333-3525 ext 113,-76.698447582533,37.949382072658
Soil and Water Conservation District  - Peanut,#0,5541b804,Tara Outland-Williams,757-357-7004,-76.598074985964,36.957478655808
Soil and Water Conservation District - Appomattox River,#0,5541b804,Michael J. Parrish,804-469-4514,-77.586653336854,37.077927762748
Soil and Water Conservation District - Big Sandy,#0,5541b804,Anthony Justus,276-566-7029,-82.008748287087,37.204986311194
Soil and Water Conservation District - Blue Ridge,#0,5541b804,Kathy Smith,540-483-5341 ex.3,-79.887663531984,37.018832132864
Soil and Water Conservation District - Chowan Basin,#0,5541b804,Stacey Bradshaw,434-634-2115 x 111,-77.547812569753,36.678085030777
Soil and Water Conservation District - Clinch Valley,#0,5541b804,Angela Ball,276-889-4650 x 127,-82.068532934733,36.906228222146
Soil and Water Conservation District - Colonial,#0,5541b804,Brian Noyes,757-645-4895,-76.775404772431,37.370704736153
Soil and Water Conservation District - Culpeper,#0,5541b804,Stephanie DeNicola,540-825-8591,-78.021949156458,38.485146078519
Soil and Water Conservation District - Daniel Boone,#0,5541b804,Samantha Briggs,276-346-1658,-83.116784613221,36.687490999714
Soil and Water Conservation District - Eastern Shore,#0,5541b804,Bonnie Mahl,757-787-0918,-75.670993936643,37.728381073435
Soil and Water Conservation District - Evergreen,#0,5541b804,Jeana Waddle,276-624-3807,-81.515839481141,36.835436222603
Soil and Water Conservation District - Halifax County,#0,5541b804,Bruce Pierce,434-476-7923,-78.928470527354,36.76364804036
Soil and Water Conservation District - Hanover Caroline,#0,5541b804,Rebecca Jones,804-537-5225,-77.368173154236,37.76537381564
Soil and Water Conservation District - Headwaters,#0,5541b804,Sandy Greene,540-234-9336,-79.014231627664,38.19289606188
Soil and Water Conservation District - Henricopolis,#0,5541b804,Lindy Durham,804-501-5175,-77.515290756012,37.628863491738
Soil and Water Conservation District - Holston River,#0,5541b804,Christine Hannen,276-628-8187 x 101,-81.97679326541,36.699214811721
Soil and Water Conservation District - James River,#0,5541b804,Linda McAllister,804-957-6148,-77.28909373183,37.222056112957
Soil and Water Conservation District - John Marshall,#0,5541b804,,540-347-3120,-77.79425626564,38.716545395679
Soil and Water Conservation District - Lake Country,#0,5541b804,Alvis Inge,434-738-0150,-78.38217459077,36.671122626117
Soil and Water Conservation District - Lonesome Pine,#0,5541b804,Ms. Carolyn Baker,(276) 926-6621,-82.46659208083,37.149644529426
Soil and Water Conservation District - Lord Fairfax,#0,5541b804,Amanda Campbell,540-465-2424 Ext. 3,-78.355904616072,38.985036468
Soil and Water Conservation District - Loudoun,#0,5541b804,Suzanne Brown,703-777-2075,-77.564986787459,39.107073641303
Soil and Water Conservation District - Monacan,#0,5541b804,Betty McCracken,804-556-4936,-76.928042998654,38.974934524455
Soil and Water Conservation District - Mountain,#0,5541b804,Teresa Hoke Reed,540-839-4616,-79.788671576776,38.04569209472
Soil and Water Conservation District - Mountain Castles,#0,5541b804,Erica Moore,540-977-2698,-79.865691293296,37.330702687332
Soil and Water Conservation District - Natural Bridge,#0,5541b804,Margaret Spencer,540-463-7124 x 107,-76.537817484561,38.26720328741
Soil and Water Conservation District - New River,#0,5541b804,Tracy Goodson,276-236-7191,-80.89738623597,36.679173868935
Soil and Water Conservation District - Northern Virginia,#0,5541b804,,703-324-1460,-77.362776215454,38.855196003793
Soil and Water Conservation District - Patrick,#0,5541b804,Sandra Heath,"276-694-3121, Ext. 3",-78.618766893406,38.411276005826
Soil and Water Conservation District - Peaks of Otter,#0,5541b804,Education Coordinator,540.587.7645,-79.560406021896,37.340335971853
Soil and Water Conservation District - Peter Francisco,#0,5541b804,Sherry Ragland,"434-983-7923, Ext. 4",-78.511687142332,37.540707012057
Soil and Water Conservation District - Piedmont,#0,5541b804,Robin Buckalew,434-392-3782 ext. 108,-78.413172595988,37.265608507409
Soil and Water Conservation District - Pittsylvania,#0,5541b804,Marci Simpson,"434-432-8146, Ext 106",-79.403484395984,36.865571126545
Soil and Water Conservation District - Prince William,#0,5541b804,Jeannie Heflin,571-379-7514,-77.507069824537,38.764332616323
Soil and Water Conservation District - Robert E. Lee,#0,5541b804,Anne Marie Clark,434.352-2819 ,-78.847571709306,37.363817040067
Soil and Water Conservation District - Scott County,#0,5541b804,Shelia Richards,276-386-9241,-82.580982943335,36.637880769185
Soil and Water Conservation District - Shenandoah Valley,#0,5541b804,Megen Dalton,540-433-2853 x 3,-78.849456801905,38.42814728447
Soil and Water Conservation District - Skyline,#0,5541b804,Cynthia Hancock,540/381-0071,-80.351896006184,37.140201563143
Soil and Water Conservation District - Southside,#0,5541b804,Bob Jones,434-542-5884,-78.635958439183,37.052822419985
Soil and Water Conservation District - Tazewell,#0,5541b804,Elizabeth Bennett,276-988-9588x101,-81.485968257431,37.13760774205
Soil and Water Conservation District - Thomas Jefferson,#0,5541b804,Garnett Mellen,434-975-0224,-78.486892707189,38.036964066098
Soil and Water Conservation District - Three Rivers,#0,5541b804,Michelle Carter,18044432327,-76.848721163766,37.910424858765
Soil and Water Conservation District - Tidewater,#0,5541b804,Carl Thiel-Goin,804-693-3562x5,-76.521932505592,37.404665187282
Soil and Water Conservation District - Tri-County/City,#0,5541b804,Melanie Swick,540/656-2401,-77.479592321797,38.302955032398
Soil and Water Conservation District - Virginia Dare,#0,5541b804,Kathleen N.Hickman,757-385-4775,-76.056836065809,36.752431966937
South Centre Corridors Resource Conservation and Development Council,#0,5541b804,Stacey Bradshaw,804-732-4375,-77.547814712359,36.678088078481
South Hampton Roads Resource Conservation & Development Council,#0,5541b804,Judy Lyttle,757-547-7172,-76.250761577675,36.71607868121
"South Hill, VA Dept. of Public Works",#0,5541b804,Bill Wilson,434-447-3191,-78.13030152083,36.726576771498
South Salem Elementary School,#0,5541b804,Margaret Humphrey,540-387-2478,-80.081715578165,37.277717618947
"Southeast Rural Community Assistance Project, Inc.",#0,5541b804,Larry Wallace,(866) 928-3731,-79.947792984644,37.271720536896
Southeastern Public Service Authority (SPSA),#0,5541b804,Dean Arrington,757-420-4700,-76.235297219545,36.789579084844
Southern Appalachian Mountain Stewards,#0,5541b804,Sam Broach,276-565-6167,-82.784238964989,36.904142963657
Southern Environmental Law Center,#0,5541b804,Carey Morton,434-977-4090,-78.48227559195,38.031012469933
"Southern Virginia Botanical Gardens and Environmental Education Center, Inc.",#0,5541b804,Dr. Charles Stallard,4347532274,-79.002785769132,36.57319577868
Southwest Environmental Education Team,#0,5541b804,Carol Doss,(276) 628-1600,-81.976456726741,36.708105076851
Southwest Virginia 4-H Educational Center,#0,5541b804,Win Iden,276-676-6180,-81.923322773095,36.730295330698
SP Recycling Corporation,#0,5541b804,Mark Allen,804-359-6606,-77.411369752128,37.590302746944
SPARK (Shore People Advancing Readiness for Knowledge - Eastern Shore Community College Foundation,#0,5541b804,Eve Belote,757-789-1767,-75.743628311348,37.648305594139
Spotswood Elementary School,#0,5541b804,Kim Hartzler-Weakley,540-568-7083,-78.873232411402,38.435432152019
Spotsylvania High School,#0,5541b804,Meredith Lohr,540-582-3882,-77.546306610973,38.237510022261
Spring Hill Elementary School,#0,5541b804,Alison Bauer,703.506.3400,-77.228430186735,38.939005185698
St. Clare Walker Middle School (Middlesex County),#0,5541b804,Mandy Machut,804-758-2561,-76.499781352224,37.593274354138
St. Mary Star of the Sea,#0,5541b804,Sister Mary Therese,(757) 723-6358,-76.317333497881,37.016119617582
St. Patrick Catholic School,#0,5541b804,Richard Strauss,(757) 440-5500,-76.300307135641,36.894731811469
St. Paul High School (VaN School),#0,5541b804,Terry Vencil,276.762.5221,-76.619921665228,39.24756635806
Stafford County,#0,5541b804,Steve Hubble,540-658-4559,-77.408690127899,38.4228121089
Stafford County Public Schools,#0,5541b804,Scott Horan,540-658-6540,-77.406645640508,38.423310322369
Star Achevers Academy - Peninsula Metropolitan YMCA,#0,5541b804,Tina Banks-Gray,757-826-6018,-76.476833344276,37.105666845499
"Starbase Victory, Inc.",#0,5541b804,Bruce LaLonde,757-383-3202,-76.320341516101,36.810067479621
State Arboretum of Virginia and Blandy Experimental Farm,#0,5541b804,Candace Felling,540-837-1758,-78.063035405153,39.063867645212
State Fair of Virginia,#0,5541b804,,(804) 994-2800,-77.421758525235,37.850870225811
Staunton City,#0,5541b804,Thomas Yeago,540-886-2634,-79.074126677173,38.149326470564
Staunton City Public Schools,#0,5541b804,Dori Walk,540-332-3920,-79.074123340484,38.149324729389
Staunton Recreation and Parks,#0,5541b804,Claire Richardson,540-332-3945,-79.091430176693,38.143279446583
Staunton River Battlefield State Park,#0,5541b804,Jim Zanarini,(434) 454-4039,-78.703145666869,36.881150263828
Staunton River High School,#0,5541b804,Barbara Rezzonico,540-586-1045,-79.524721173909,37.331621800862
Staunton River State Park,#0,5541b804,Josh Ellington,434-572- 4623,-78.676804608441,36.698128663637
"STEM Education and Professional Studies, Old Dominion University, Department of",#0,5541b804,"Daniel L. Dickerson, PhD",757.683.4676,-76.284245490504,36.847386350863
Sterling Middle School,#0,5541b804,Odette Scovel,(571) 252-1360,-77.406260163623,39.001796118648
"Steward School, The",#0,5541b804,G. Dan Frank,(804) 565-2309,-77.623515031943,37.612244851015
Stewardship Virginia,#0,5541b804,Bonnie Phillips,804-786-5056,-77.431616874696,37.537649755934
Stewartsville Elementary School,#0,5541b804,Barbara Rezzonico,540-586-1045,-79.524719637497,37.331621049875
Stonewall Jackson Middle School (Hanover County),#0,5541b804,Lynn Shope,804-723-2260,-77.340883720685,37.617860949557
Stonewall Jackson Middle School (Roanoke City Public Schools),#0,5541b804,Jonathan Pait,540-853-2859,-79.940051366858,37.28344400152
Stonewall Middle School,#0,5541b804,Renee P. Chinn,703-361-3185,-77.436710300494,38.635586745396
"Stormwater Management, Virginia Department of Conservation and Recreation",#0,5541b804,Jackie Miller,(804) 786-2064,-77.431616671656,37.537650525583
Stormwater Planning Division (Fairfax County),#0,5541b804,LeAnne Astin,703-324-5879,-77.358994404556,38.854075691651
Strawbridge Elementary School,#0,5541b804,Katie Catania,757-648-3800,-76.018301723475,36.76606621676
StreamWatch,#0,5541b804,Rose Brown,434-923-8642,-78.478544518322,38.029465125173
Structures Design Build,#0,5541b804,Adam Cohen,540-774-4800,-80.031135886917,37.196770967319
Stuarts Draft Middle School,#0,5541b804,Garland King,(540) 946-7611,-79.008620839836,38.046007379581
Student Council Association for Waller Mill Elementary,#0,5541b804,Patti Flanary,757-220-4060,-76.712588037045,37.293100485091
Suffolk Public Schools,#0,5541b804,Julie Moyer,(757) 925-6750,-76.582893226208,36.728235953227
Sussex Central Middle School,#0,5541b804,Barbara Blount,434-246-1051,-77.254573724987,36.921427564614
Sussex County Middle School,#0,5541b804,Thomas Hohenwarter,(434) 246-2251,-77.254576210213,36.921426103355
"Sustainability Park, The",#0,5541b804,Brenda Robinson,804-416-1140,-77.317540593756,37.351637600547
Swansboro Elementary School,#0,5541b804,"Ms. Mary P. Pierce, Principal",(804) 780-5030,-77.466217148319,37.510728317407
Sweet Briar College,#0,5541b804,Mike Hayslett,434-381-6523,-79.08286373833,37.557648820162
Swift Creek Middle School (VaN School),#0,5541b804,Betsy Ameen,804-739-6315,-77.644885175348,37.439290153207
Swords Creek Elementary School,#0,5541b804,Heather Keen,276-991-0016,-82.080129989752,36.900944655688
Synergy/Truxtun Milleniun,#0,5541b804,Lena Simmons,757 338 5325,-76.305714248568,36.838009936873
T. C. Miller Elementary School,#0,5541b804,Teri Brandon,434-522-3717,-79.143658282538,37.413063277435
Taylor Elementary School,#0,5541b804,Mary Rowland,703-228-6275,-77.113467165389,38.907151560577
Team Estonoa- St. Paul High School,#0,5541b804,Terry Vencil,276.762.5151,-76.6199246379,39.247566465123
TFC Recycling Corporation,#0,5541b804,Kathy Russell,757-543-5766,-76.266264733961,36.789987631888
"The Nature-friendly Garden: Creating A Backyard Haven for Plants, Wildlife, and People (Book)",#0,5541b804,Marlene A. Condon,434-823-8150,-78.694970762292,38.131835907495
Thomas Harrison Middle School,#0,5541b804,Don Vale,540-434-1949,-78.891152164825,38.451658692223
Thomas Jefferson Planning District Commission,#0,5541b804,Rochelle Garwood,434-979-7310,-78.479643421519,38.029316989247
Three Lakes Nature Center and Aquarium,#0,5541b804,Tom Thorp,804-262-5055,-77.429862434394,37.618562044012
Tidewater Community College- Biology Department,#0,5541b804,"Lisa Behm, Chesapeake Campus",757-822-5210,-76.294608405159,36.725215249533
Tidewater Oyster Gardeners Association,#0,5541b804,Vic Spain,804-642-6764,-76.472607047409,37.515803404508
Tidewater Resource and Development Council,#0,5541b804,"Patricia Tyrrell, RC&D Coordinator",804.642.4852,-76.848723844278,37.910426477704
Town of Luray,#0,5541b804,D. Patrick O'Brien,540-743-6475,-78.458224895622,38.665601638732
Town of Woodstock,#0,5541b804,Angela Klem,540-459-3621,-78.504623087409,38.882782049658
"Transportation (VDOT), Department of - Environmental Division",#0,5541b804,Richard L. Walton,804-786-2801,-77.429914473849,37.538152814879
Tree Stewards of Greater Lynchburg,#0,5541b804,Klaus Schreiber,(434) 455-4411,-79.142556275509,37.414076502137
Trees Virginia,#0,5541b804,Louise Seals,434-295-6401,-78.531406772114,38.022271572558
Trevilians Elementary School (VaN School),#0,5541b804,Dr. K. Alday,804-967-1108,-78.09944508611,38.076248692467
Tricycle Gardens (Community Garden in Church Hill),#0,5541b804,Sally G. Schwitters,804-231-7767,-77.420933314014,37.534537997586
Trinity Episcopal (VaN School),#0,5541b804,Alice Phillips,804-327-3142,-77.593301840117,37.548843297722
Trout Unlimited - Winchester Virginia,#0,5541b804,Mark Zimmerman,(540) 868-9312,-78.190198456525,39.124145456611
Trout Unlimited- Virginia Council,#0,5541b804,John Ross,540-592-7020,-77.879997381679,38.990000569945
"Trout Unlimited, Inc. - Arlington Chapter",#0,5541b804,J. Seth Coffman,540-459-8163,-77.072565005346,38.893552160652
Tuckahoe Elementary School,#0,5541b804,Mary McLean for Principal Cynthia Brown,702-228-5288,-77.159366052341,38.89255348305
Twin Lakes State Park,#0,5541b804,,434-392-3435,-78.31471663249,37.133768798743
Tye River Explorers,#0,5541b804,Paula DeLuca or Glenda Cahoon,434-263-6353,-78.930487685141,37.635515382196
Under the Sea,#0,5541b804,Andrew Wilson,703-464-4763,-77.406808009214,38.992078011148
"University of Richmond, Landscape Design Professional Certificate School of Continuing Studies",#0,5541b804,"Cary Jamieson, Program Director",804-289-8133,-77.543311342565,37.57454427786
University of Virginia - College and Graduate School of Arts & Sciences,#0,5541b804,Michelle Prysby,434-243-4292,-78.510298787466,38.03400495622
University of Virginia - Energy & Facility Management,#0,5541b804,Sonny Beale,(434) 982-5438,-78.515896514299,38.035957414573
University of Virginia Climatology Office,#0,5541b804,,434-924-0548,-78.507933476927,38.033671565783
Upper Roanoke River Roundtable,#0,5541b804,Sharon Stinnette,540-982-8764,-79.974028676395,37.259021388176
Upper Tennessee River Roundtable,#0,5541b804,Carol Doss,276-628-1600,-81.976090872334,36.707415080981
Urban Backyard Edibles,#0,5541b804,Nina Zinn,(804) 859-6581,-77.436043193033,37.540727385699
Urbanna Oyster Festival Foundation Marine Science Legacy Program,#0,5541b804,Vera England,804-758-0368,-76.574393787112,37.63764211386
US Army Corps of Engineers - Philpott Lake,#0,5541b804,Susan Martin,276-629-2703,-80.027938615237,36.772296978364
"US Army Garrison, Fort Lee - Division of Environmental Management",#0,5541b804,Craig Norris,804-734-3772,-77.344162144499,37.244874489538
"US Fish and Wildlife Service-Presquile NWR, Plum Tree Island NWR & James River NWR",#0,5541b804,Cyrus Brame,804-829-9020,-77.188660397951,37.337070910946
US Forest Service-George Washington/Jefferson National Forest - North River Ranger District,#0,5541b804,Ellwood Burge,540-432-0187,-78.935103766195,38.382875289607
USDA Forest Service - Sherando Lake,#0,5541b804,Sandy Fix,540-942-5509,-79.987836517579,37.332819999651
USDA FS Blacksburg,#0,5541b804,Matt Winn,(540) 231-8815,-80.407444781173,37.204708439511
USDA Natural Resources Conservation Service- State Office,#0,5541b804,Jack Brickner,804-287-1691,-77.548089926614,37.604593975875
Valentine Museum - Richmond History Center,#0,5541b804,Visitor Desk,804-649-0711,-77.431186953689,37.541750360938
Valley AIRNow,#0,5541b804,,540-665-0973,-78.164432930209,39.183724294633
Valley Conservation Council,#0,5541b804,Faye Cooper,540-886-3541,-79.071669599598,38.149050544861
Verdun Adventure Bound,#0,5541b804,Stephen Roszel,540-937-4920,-77.943518311544,38.619217964189
Vernon Johns Junior High School,#0,5541b804,Johna Vazquez,804-862-7090,-77.387036924015,37.202831791656
Virginia Academy of Science,#0,5541b804,James Martin,804-864-1451,-77.465971368572,37.561647147297
Virginia Agribusiness Council,#0,5541b804,Katie Frazier,804-643-3555,-77.593273370896,37.633453011826
Virginia Air and Space Center,#0,5541b804,Deborah Rice,757-727-0900,-76.344101154242,37.02450023472
Virginia Aquarium & Marine Science Center,#0,5541b804,Chris Witherspoon,757-385-0270,-75.982843726569,36.820674284141
Virginia Association of Counties (VACo),#0,5541b804,Penny Gross,804-788-6652,-77.433755635502,37.536266998102
Virginia Association of Museums,#0,5541b804,"Heather Widner, Communications Director",804.358.3170,-77.481386464283,37.553838827617
Virginia Association of Science Teachers (VAST),#0,5541b804,Susan Booth,757-874-9301,-76.573253903432,37.137884691976
Virginia Association of Soil and Water Conservation Districts Educational Foundation,#0,5541b804,Elizabeth Sokolik,804-559-0324,-77.376677955764,37.605342559547
"Virginia Beach Clean Community Program, City of",#0,5541b804,Tracey Gauthier,757 -385-0445,-76.142342377533,36.789143293635
Virginia Beach Parks and Recreation,#0,5541b804,Mary Cole,757-385-1100,-76.142341508363,36.789145183878
Virginia Canals and Navigation Society,#0,5541b804,Phillip DeVoss,,-79.289456451751,37.542430144793
Virginia Center for Wind Energy at JMU,#0,5541b804,Remy Pangle,540-568-8768,-78.865155912747,38.431604082548
Virginia Climate Initiative,#0,5541b804,Rob Jones,804-648-6299 press 1,-77.434022328019,37.53620999039
Virginia Coastal Fly Anglers,#0,5541b804,Larry Clemens,757-373-0068,-76.133223706212,36.883890366967
Virginia Coastal Zone Management Program,#0,5541b804,Virginia Witmer,804-698-4320,-77.438296275101,37.539249397621
Virginia Commonwealth University's L. Douglas Wilder School of Gov't & Public Affairs,#0,5541b804,Dr. Helen Ruth Aspaas and Tammy Parece,804-828-8086,-77.45409797054,37.549798887649
Virginia Conservation Network,#0,5541b804,Dana Roberts,804-644-0283,-77.439169836275,37.541559882183
Virginia Cooperative Exension - Powhatan,#0,5541b804,Cathy Howland,(804) 598-5640,-77.919700590984,37.544344997067
Virginia Cooperative Extension - Albermarle 4-H Program,#0,5541b804,Robbie Morrison,434-872-4580,-78.515962688879,38.005843668954
Virginia Cooperative Extension - Appomattox,#0,5541b804,Bonnie Tillotson,434-352-8244,-78.830877104283,37.356089314118
Virginia Cooperative Extension - Appomattox County,#0,5541b804,Bruce Jones,434-352-8244,-78.83088003196,37.356087970745
Virginia Cooperative Extension - Arlington,#0,5541b804,Kisha Simpson,(703) 228-6400,-77.087104758748,38.83446174818
Virginia Cooperative Extension - Augusta County Office,#0,5541b804,Betty Coleman,540-245-5750,-79.008357845319,38.202078781472
Virginia Cooperative Extension - Brunswick County,#0,5541b804,Jinx Baney,434-848-2151,-77.783822198344,36.811460006535
Virginia Cooperative Extension - Buckingham County,#0,5541b804,Ruth Wallace,434-969-4261,-78.552527823917,37.551952049032
Virginia Cooperative Extension - City of Alexandria,#0,5541b804,Farrell Oxley,(703) 746-5547,-77.053612065273,38.796825531011
Virginia Cooperative Extension - Community Viability Program (Rockingham County),#0,5541b804,Eric Bendfeldt,540-432-6029,-78.901011646146,38.391918718388
Virginia Cooperative Extension - King William Office,#0,5541b804,David Moore,804-769-4955,-77.015424691969,37.68758688803
Virginia Cooperative Extension - Madison County,#0,5541b804,Adam Downing,540-948-6881,-78.258187082701,38.379657716758
Virginia Cooperative Extension - Northhampton,#0,5541b804,Christina Ruszczyk-Murray,757-414-0731,-75.908983323494,37.402895970798
Virginia Cooperative Extension - Prince William County,#0,5541b804,Paige Thacker,(703) 792-4671,-77.520880294766,38.787175490567
Virginia Cooperative Extension - Rockingham County Office,#0,5541b804,Amber Vallotton,(540) 564-3080,-78.901011175231,38.391919263208
Virginia Cooperative Extension -Lunenburg County,#0,5541b804,Donna Daniel,(434) 696-5526,-78.031380605993,36.706536597712
Virginia Cooperative Extension Westmoreland and Richmond County 4-H,#0,5541b804,Wendy Herdman,804-493-8924,-76.775426788359,38.070834862097
Virginia Council for Litter Prevention and Recycling (VCLPR),#0,5541b804,"Julie May, President",540-659-4579,-77.410785462221,38.422269308913
Virginia Department of Forestry - Charlottesville,#0,5541b804,Ellen Powell,434.977.6555,-78.531408096965,38.022270457806
Virginia Discovery Museum,#0,5541b804,Erin Lewis,434-977-1025,-78.477937816144,38.029506578366
"Virginia Eastern Shore Land Trust, Inc.",#0,5541b804,Peter Henderson,757-442-5885,-75.80993476579,37.548372432574
Virginia Energy Sense,#0,5541b804,Andy Farmer,804-371-9928,-77.432206091117,37.536184706587
Virginia Environmental Business Council (VEBC),#0,5541b804,Brenda Robinson,804-264-7445,-77.395762596429,38.848548852119
Virginia Environmental Endowment,#0,5541b804,Gerald McCarthy,804-644-5000,-77.43545868904,37.536186337324
"Virginia Federation of Garden Clubs, Inc.",#0,5541b804,Nancy Hargroves,804-553-0445,-77.470884832473,37.620153897814
Virginia Forest Products Association,#0,5541b804,,804-737-5625,-77.307983011742,37.521915905563
Virginia Forest Watch (VFW),#0,5541b804,Bud Watson,804-314-2225,-77.5135649204,37.78851851521
Virginia Green Industry Council,#0,5541b804,Lorene C. Blackwood,804-484-4323,-77.527952163536,37.57634278513
Virginia Historical Society,#0,5541b804,Evan Liddiard,804-358-4901,-77.472662803187,37.558232739198
Virginia Hot Springs Preservation Trust,#0,5541b804,Mary,540-839-2407,-79.831583694608,37.999402172074
Virginia Institute of Marine Science (VIMS) - Chesapeake Bay National Estuarine Research Reserve(VIMS),#0,5541b804,Sarah McGuire,804-684-7878,-76.501685637425,37.248115496955
Virginia Interfaith Power & Light,#0,5541b804,Katie Preston,804-643-2474,-77.426865030649,37.53407088397
Virginia Junior Academy of Science (VJAS),#0,5541b804,Susan Booth,804-864-1450,-77.465968832407,37.561646586865
Virginia Living Museum,#0,5541b804,Virginia Gabriele,757-595-1900x249,-76.479546513613,37.070058255458
Virginia Loves Trees,#0,5541b804,Sarah Gugercin,5402311836,-80.424477010947,37.233213684935
Virginia Manufacturers Association (VMA),#0,5541b804,Anne Marie Gathright,804-643-7489,-77.433993251754,37.537130966804
Virginia Marine Resource Commission,#0,5541b804,John Bull,757-247-2200,-76.430751386884,36.978697639798
Virginia Marine Science Museum,#0,5541b804,Elizabeth Miller,757-385-0275,-75.982843844063,36.820673954949
Virginia Master Naturalist - Alleghany Highlands Chapter,#0,5541b804,Jaimie Lomasney,540-862-8117,-79.695106643023,37.990072583218
Virginia Master Naturalist - Arlington Regional Chapter,#0,5541b804,Caroline Haynes,703-228-6535,-77.126198604984,38.859172325452
Virginia Master Naturalist - Banshee Reeks Chapter,#0,5541b804,John Rohm or Bruce McGranahan,540-899-4169,-77.569998875933,39.130003005063
Virginia Master Naturalist - Beagle Ridge Chapter,#0,5541b804,Ellen Reynolds,276-621-4511,-81.127962269764,36.867934008949
Virginia Master Naturalist - Blue Ridge Foothills & Lakes Chapter,#0,5541b804,Guy W. Buford,540-483-7700,-79.921263550359,37.043930320065
Virginia Master Naturalist - Historic Rivers Chapter,#0,5541b804,Susan Powell,,-76.724520609062,37.399160087172
Virginia Master Naturalist - New River Chapter,#0,5541b804,John Copeland,(540) 961-8397,-80.400397676137,37.201904688228
Virginia Master Naturalist - Rivanna Chapter,#0,5541b804,Jenny Thompson,434-872-4580,-78.531406823394,38.022269951292
Virginia Master Naturalist - Roanoke Valley,#0,5541b804,Denny McCarthy,540.387.5461,-78.531409284367,38.022266741576
Virginia Master Naturalist program (Statewide Office),#0,5541b804,Vacant,434-872-4580,-78.515964323778,38.005840249257
Virginia Master Naturalists - Central Blue Ridge Chapter,#0,5541b804,Michael Lachance,434-263-4035,-78.879681937198,37.750114617006
Virginia Master Naturalists - Central Piedmont Chapter,#0,5541b804,Thomas Kneipp,804-492-4410,-78.269349734391,37.530200929052
Virginia Master Naturalists - Central Rappahannock Chapter,#0,5541b804,Karen Snape,540-663-0181,-78.531409056983,38.022270498325
Virginia Master Naturalists - Dan River Chapter,#0,5541b804,Stuart Sutphin,434-799-6558,-79.384852976335,36.61104219118
Virginia Master Naturalists - Eastern Shore Chapter,#0,5541b804,Dot Field,757-678-6208,-75.741315105638,37.649302530133
Virginia Master Naturalists - Fairfax Chapter,#0,5541b804,Jim McGlone,(703) 324-1480,-77.362776008563,38.855193626418
Virginia Master Naturalists - Headwaters Chapter,#0,5541b804,Sandy Greene,540-234-0336,-78.96622558394,38.280210682003
Virginia Master Naturalists - Historic Southside Chapter,#0,5541b804,Janet Spencer,757-365-6256,-76.707907512784,36.908245033825
Virginia Master Naturalists - James River Chapter,#0,5541b804,Krista McCullough,804-598-9674,-77.825427053086,37.707164113535
Virginia Master Naturalists - Northern Neck Chapter,#0,5541b804,Charlene Talcott,(804) 462-5030,-76.582971013647,37.781301889159
Virginia Master Naturalists - Old Rag Chapter,#0,5541b804,Jack Price,540-987-9166,-78.252859407238,38.603043519107
Virginia Master Naturalists - Peninsula Chapter,#0,5541b804,Megan Tierney,757-727-1401,-76.350033723752,37.027100265335
Virginia Master Naturalists - Pocahontas Chapter,#0,5541b804,Marney Terrill,804-763-3898,-77.580816345856,37.384546315797
Virginia Master Naturalists - Riverine Chapter,#0,5541b804,Kathleen Ogilvy,804-798-8362,-77.302637395022,37.521914194229
Virginia Master Naturalists - Rockbridge Chapter,#0,5541b804,Karen Stanley,540-463-5253,-79.458462108519,37.778220678698
Virginia Master Naturalists - Shenandoah Chapter,#0,5541b804,Tom Adkins,540-869-8649,-78.063034543709,39.063867203094
Virginia Master Naturalists - Southwestern Piedmont Chapter,#0,5541b804,Denny Casey,(276) 634-4184,-79.864568642543,36.687242224973
Virginia Master Naturalists - Tidewater Chapter,#0,5541b804,Darren Loomis,757-925-2318,-77.431617095818,37.537652559026
Virginia Master Nauralists - Central Virginia Chapter,#0,5541b804,Greg Eaton,(434) 544-8360,-79.539124675059,37.389654001277
Virginia Middle School,#0,5541b804,Jennifer Hurt,276-821-5646,-82.186324672958,36.599496211399
Virginia Museum of Fine Arts - Teacher Programs,#0,5541b804,Tywla Kitts,804-204-2662,-77.475042856352,37.556620238773
Virginia Museum of Natural History,#0,5541b804,Denny Casey,276-634-4141,-79.864565205614,36.687242134844
Virginia Museum of Natural History - Charlottesville Branch,#0,5541b804,Ann Mallek,434-996-6159,-78.468063830113,38.167626305781
Virginia Native Plant Society,#0,5541b804,"Sally Anderson, President",(540) 722-3072,-78.063035821606,39.063868544328
Virginia Native Plant Society - Pocahontas Chapter (VNPS),#0,5541b804,Richard Moss,804-266-3070,-77.47086656888,37.620169010145
Virginia Natural Heritage Program (part of DCR),#0,5541b804,Tom  Smith,804-786-4554,-77.431512411963,37.538254979051
Virginia Natural Resources Leadership Institute (VNRLI),#0,5541b804,Dr. Frank Dukes,434-924-6569,-78.509230389315,38.042206081767
Virginia Outdoor Writers Association,#0,5541b804,Marie Majarov,540-336-8728,-78.119720924695,39.194523733356
Virginia Outdoors Foundation (VOF),#0,5541b804,Bob Lee,540-347-7727 ext. 223,-77.805765732067,38.715993700295
Virginia Peninsulas Public Service Authority (VPPSA),#0,5541b804,Tracy Hofmeyer,757-259-9850,-76.662260278949,37.247536850516
Virginia Recycling Association (VRA),#0,5541b804,Erica Trout,(804) 302-4231,-77.654671354861,37.387802123777
Virginia Resource-Use Education Council (VRUEC),#0,5541b804,Barbara Young,(804) 225-2676,-77.429856027743,37.53663688923
Virginia Save our Streams Program,#0,5541b804,Leah Miller,301-548-0150 ext. 219,-77.21998754504,39.120335121175
Virginia School for Deaf and Blind,#0,5541b804,Nancy Armstrong,(540) 332-9000,-79.035295727013,38.167025822828
Virginia Sea Grant,#0,5541b804,Katherine Davis Small,(804) 684-7026,-76.501686809192,37.248116714947
Virginia Sportsman,#0,5541b804,"Hay Hardy, Publisher",434-971-1199,-78.5616696919,38.11076053766
Virginia State University - Cooperative Exension & Agricultural Research Service (CEARS),#0,5541b804,Albert Reid,804-524-5495,-77.417048342567,37.238510999464
Virginia Tech - Eastern Shore Agricultural Research and Extension Center,#0,5541b804,Dr. Mark S. Reiter,757-414-0724 ext. 16,-75.82104183824,37.584584659825
Virginia Tech College of Natural Resources,#0,5541b804,Jeff Kirwin,540-231-7265,-80.423434019898,37.228312616875
Virginia Tech Department of Horticulture,#0,5541b804,Dr. J. Roger Harris,540-231-5451,-80.406644517932,37.215940858329
Virginia Tech Science Outreach( STEM K-12 Initiative),#0,5541b804,"Llyn Sharp, Geosciences Outreach Program Coordinator",540-231-4080,-80.424478181833,37.233211744075
Virginia Tourism Corporation,#0,5541b804,,800-847-4882,-77.438172061356,37.535221447981
Virginia Turfgrass Council,#0,5541b804,Thomas Tracy,757-464-1004,-76.13905271755,36.878211472776
Virginia Vernal Pools Program,#0,5541b804,Mr. Mike Hayslett,434-238-0223,-79.082863138274,37.557652046772
Virginia Water Monitoring Council (VWMC),#0,5541b804,Jane Walker,540-231-4159,-80.423438164268,37.228312549228
Virginia Water Resources Research Center,#0,5541b804,Stephen Schoenholtz,540-231-5624,-80.423434240621,37.228310430158
Virginia Waterman's Association,#0,5541b804,Ken Smith,(804) 366-2325,-76.322854258199,37.711161680975
Virginia Wildlife Magazine,#0,5541b804,Sally Mills,804-367-0486,-77.481659576335,37.572665868653
Virginia Zoo (Education and Conservation Programs),#0,5541b804,Janice Martin,"(757) 441-2374, ext. 229",-76.281997579139,36.878765415104
Virginiaforever,#0,5541b804,Missy Gould,804-788-0025,-77.437295442875,37.536766735285
Virginia's Explore Park,#0,5541b804,Anna Wills,540-427-1800x334,-79.90807083224,37.218096945738
Volunteer Advocates for Chesapeake Youth (VACY),#0,5541b804,Mary R. Riley,757-382-8184,-76.248363522319,36.717074725965
W.E. Waters Middle School,#0,5541b804,Dr. Eric Fischer,757-558-2813,-76.356906105624,36.79515111813
W.E.Skelton 4-H Educational Center at Smith Mnt.Lake,#0,5541b804,Rayna Wheeler,540-721-2759x253,-79.731132306918,37.038706348465
Walker Nature Education Center,#0,5541b804,Katie Shaw,(703) 476-9689,-77.341309131378,38.928075662509
Wallace Middle School,#0,5541b804,David Lambert,276-642-5400,-82.129566724734,36.650010404685
Walt Whitman Middle School,#0,5541b804,Kate Salerno,571-423-4263,-77.223621260087,38.868196112911
Ward Burton Wildlife Foundation,#0,5541b804,Ward Burton,434-467-7038,-78.927131889468,36.767913016063
Ware Academy,#0,5541b804,Ed Gardiner,804-693-3825,-76.504744235398,37.426889344552
Washingon and Lee University,#0,5541b804,Lenna Ojure,540-458-8249,-79.443491946845,37.786160723425
Waste Watchers of the Eastern Shore,#0,5541b804,Jenny O'Neill,757-787-7468,-75.813116125282,37.720008897848
Water Environment Federation,#0,5541b804,Lorien Walsh,703-535-5264,-77.044631131904,38.811972630297
Waterman Elementary School,#0,5541b804,Kim Hartzler-Weakley,540-568-7083,-78.873236030469,38.435429248048
Waterman's Museum,#0,5541b804,Pam Rudder,757-887-2641,-76.512633487271,37.239376152595
Waynesboro City Public Schools,#0,5541b804,Sue Wright,540-946-4600,-78.89592854819,38.068285026469
Waynesboro High School,#0,5541b804,Dr. B. J. Bryson,540-568-2924,-78.873232222022,38.435428887863
Weber City Elementary School (VaN School),#0,5541b804,Ralph Quisinberry,540-368-7981,-82.556147520702,36.622792002675
Wenonah Elementary School,#0,5541b804,Tyrell D. McElroy,540-949-4516,-78.879691613942,38.068160423623
Western Branch Middle School,#0,5541b804,Cathy Roberts,757-466-7965,-76.230712543215,36.848203996509
Western Virginia Land Trust,#0,5541b804,David Perry,540-985-0000,-79.942503975009,37.267018867129
Western Virginia Water Authority,#0,5541b804,Sarah Baumgardner,540-853-5707,-79.940786744667,37.269191404691
Westmoreland County,#0,5541b804,Robert Fink,804-493-0120,-76.827462010656,38.095135697755
Westside Elementary School,#0,5541b804,Jonathan Pait,540-853-2859,-79.940049787462,37.283446998772
"Wetlands Watch, Inc.",#0,5541b804,"William ""Skip"" Stiles",757-623-4835,-76.30527580787,36.867491718425
Wildlife Center of Virginia,#0,5541b804,Ed Clark,540-942-9453,-78.915141858604,38.038681579575
Wildlife Habitat  Council,#0,5541b804,,301.588.8994,-77.025943385423,38.998853813971
William Campbell High School,#0,5541b804,Mark Slusher,434-332-8276,-79.005878944811,37.112461257789
William Marvin Bass Elementary School,#0,5541b804,Anna Baker,434-384-5150,-79.143658731511,37.413065411964
William Monroe Middle School,#0,5541b804,Mary Craig,434-985-5240,-78.442654898041,38.295666171228
William Perry Elementary School,#0,5541b804,Jane Zook,540-946-4650,-78.880058339847,38.08411478554
"Williamsburg Land Conservancy, The",#0,5541b804,"Caren Schumacher, Executive Director",757-565-0343,-76.752718905497,37.308588146332
Williamsburg Montessori School,#0,5541b804,Jocelyn Swanson,(757) 565-0977,-76.77339293471,37.31292503792
"Williamsburg Parks and Recreation Department, City of",#0,5541b804,Lori Rierson,757-259-3760,-76.664371579525,37.242423164792
"Williamsburg, City of",#0,5541b804,Tammy Rojek,757-220-6140,-76.709468648738,37.275771864761
Wilson Middle School,#0,5541b804,Ms. K. Carr,(540) 245-5185,-78.988487977941,38.122540505788
"Winchester Environmental Maintenance Division, City of",#0,5541b804,Michael Neese,540-667-1815 x 1452,-78.162568184187,39.177515103207
Windows on our Waters,#0,5541b804,Cynthia Sainte Marie Lawrence,434-941-9640,-79.209786654215,37.416328600096
Wintergreen Nature Foundation,#0,5541b804,Liz Fravel,434-325-8169,-77.769476749193,37.174906945403
Wolftrap Elementary School,#0,5541b804,Anita Blain,703-319-7300,-77.265809819515,38.917613254443
Woodrow Wilson Middle School,#0,5541b804,Jonathan Pait,540-853-2859,-79.940051514992,37.283443819472
Woodstock Tree Board,#0,5541b804,Larry Bradford,540-459-3621,-78.504626675019,38.882779982778
Wytheville Convention and Visitors Bureau,#0,5541b804,Janie Repass,276-223-3355,-81.091949788352,36.957302422385
"Wytheville Museums, Town of",#0,5541b804,Debbie Moody,(276) 223-3330,-81.093746542992,36.946355315696
YMCA of South Hampton Roads,#0,5541b804,Lynn Skeele-flynn,757-624-9622,-76.292431235435,36.854397626842
York County Clean And Green,#0,5541b804,Laurie Halperin,757-890-3780,-76.471404989021,37.177169850103
York County Junior Master Gardening Program,#0,5541b804,Barbara Dunbar,757-890-4940,-76.445256529052,37.104503678235
York County Recreation and Parks,#0,5541b804,Molly Nealer,757-890-3500,-76.46545628538,37.183347648237
York River State Park,#0,5541b804,Charlene Talcott,757-566-3036,-76.726019920773,37.387924847967
,#0,5541b804,Daryle Rogers,757-727-2123,-76.347956816909,37.025257398515